{"type":"FeatureCollection","features":[{"type":"Feature","geometry":{"type":"Point","coordinates":[22.962106,39.350945]},"properties":{"name":"Πλαστήρα","band":0,"modes":"bus","arr":["1","3","15"],"off":[0,-0.8]}},{"type":"Feature","geometry":{"type":"Point","coordinates":[22.962106,39.350945]},"properties":{"name":"Μουσείο Τέρμα","band":0,"modes":"bus","arr":["1","3","15"],"off":[0,-1.9]}},{"type":"Feature","geometry":{"type":"Point","coordinates":[22.962106,39.350945]},"properties":{"name":"Άναυρος","band":0,"modes":"bus","arr":["1","3","15"],"off":[0,-3]}},{"type":"Feature","geometry":{"type":"Point","coordinates":[22.962106,39.350945]},"properties":{"line":"1","mode":"bus","color":"#0059a9","colorDark":"#00294f","band":0,"off":[-3.4,1.1]}},{"type":"Feature","geometry":{"type":"Point","coordinates":[22.962106,39.350945]},"properties":{"line":"3","mode":"bus","color":"#0059a9","colorDark":"#00294f","band":0,"off":[0,1.1]}},{"type":"Feature","geometry":{"type":"Point","coordinates":[22.962106,39.350945]},"properties":{"line":"15","mode":"bus","color":"#0059a9","colorDark":"#00294f","band":0,"off":[3.4,1.1]}},{"type":"Feature","geometry":{"type":"Point","coordinates":[22.920456,39.372558]},"properties":{"name":"Πέτρου και Παύλου","band":0,"modes":"bus","arr":["1","3"],"off":[0,-0.8]}},{"type":"Feature","geometry":{"type":"Point","coordinates":[22.920456,39.372558]},"properties":{"name":"ΜΕΤΚΑ","band":0,"modes":"bus","arr":["1","3"],"off":[0,-1.9]}},{"type":"Feature","geometry":{"type":"Point","coordinates":[22.920456,39.372558]},"properties":{"line":"1","mode":"bus","color":"#0059a9","colorDark":"#00294f","band":0,"off":[-1.7,1.1]}},{"type":"Feature","geometry":{"type":"Point","coordinates":[22.920456,39.372558]},"properties":{"line":"3","mode":"bus","color":"#0059a9","colorDark":"#00294f","band":0,"off":[1.7,1.1]}},{"type":"Feature","geometry":{"type":"Point","coordinates":[22.933027,39.361422]},"properties":{"name":"Υπεραστικό ΚΤΕΛ Βόλου","band":0,"modes":"bus","arr":["2","4","5","7","9","11","49"],"off":[0,-0.8]}},{"type":"Feature","geometry":{"type":"Point","coordinates":[22.933027,39.361422]},"properties":{"name":"Κεντρική Αφετηρία","band":0,"modes":"bus","arr":["2","4","5","7","9","11","49"],"off":[0,-3]}},{"type":"Feature","geometry":{"type":"Point","coordinates":[22.933027,39.361422]},"properties":{"line":"2","mode":"bus","color":"#0059a9","colorDark":"#00294f","band":0,"off":[-6.8,1.1]}},{"type":"Feature","geometry":{"type":"Point","coordinates":[22.933027,39.361422]},"properties":{"line":"4","mode":"bus","color":"#0059a9","colorDark":"#00294f","band":0,"off":[-3.4,1.1]}},{"type":"Feature","geometry":{"type":"Point","coordinates":[22.933027,39.361422]},"properties":{"line":"5","mode":"bus","color":"#0059a9","colorDark":"#00294f","band":0,"off":[0,1.1]}},{"type":"Feature","geometry":{"type":"Point","coordinates":[22.933027,39.361422]},"properties":{"line":"7","mode":"bus","color":"#0059a9","colorDark":"#00294f","band":0,"off":[3.4,1.1]}},{"type":"Feature","geometry":{"type":"Point","coordinates":[22.933027,39.361422]},"properties":{"line":"9","mode":"bus","color":"#0059a9","colorDark":"#00294f","band":0,"off":[6.8,1.1]}},{"type":"Feature","geometry":{"type":"Point","coordinates":[22.933027,39.361422]},"properties":{"line":"11","mode":"bus","color":"#0059a9","colorDark":"#00294f","band":0,"off":[-1.7,3.1]}},{"type":"Feature","geometry":{"type":"Point","coordinates":[22.933027,39.361422]},"properties":{"line":"49","mode":"bus","color":"#0059a9","colorDark":"#00294f","band":0,"off":[1.7,3.1]}},{"type":"Feature","geometry":{"type":"Point","coordinates":[22.941724,39.386658]},"properties":{"name":"Πάρκο Τέρμα (Νο2)","band":0,"modes":"bus","arr":["2"],"off":[0,-0.8]}},{"type":"Feature","geometry":{"type":"Point","coordinates":[22.941724,39.386658]},"properties":{"line":"2","mode":"bus","color":"#0059a9","colorDark":"#00294f","band":0,"off":[0,1.1]}},{"type":"Feature","geometry":{"type":"Point","coordinates":[22.92651,39.356679]},"properties":{"name":"Ύδρας","band":0,"modes":"bus","arr":["4","6","8"],"off":[0,-0.8]}},{"type":"Feature","geometry":{"type":"Point","coordinates":[22.92651,39.356679]},"properties":{"name":"Τορούτζα","band":0,"modes":"bus","arr":["4","6","8"],"off":[0,-1.9]}},{"type":"Feature","geometry":{"type":"Point","coordinates":[22.92651,39.356679]},"properties":{"line":"4","mode":"bus","color":"#0059a9","colorDark":"#00294f","band":0,"off":[-3.4,1.1]}},{"type":"Feature","geometry":{"type":"Point","coordinates":[22.92651,39.356679]},"properties":{"line":"6","mode":"bus","color":"#0059a9","colorDark":"#00294f","band":0,"off":[0,1.1]}},{"type":"Feature","geometry":{"type":"Point","coordinates":[22.92651,39.356679]},"properties":{"line":"8","mode":"bus","color":"#0059a9","colorDark":"#00294f","band":0,"off":[3.4,1.1]}},{"type":"Feature","geometry":{"type":"Point","coordinates":[22.969153,39.381185]},"properties":{"name":"Αηδονοφωλιές","band":0,"modes":"bus","arr":["4","7"],"off":[0,-0.8]}},{"type":"Feature","geometry":{"type":"Point","coordinates":[22.969153,39.381185]},"properties":{"line":"4","mode":"bus","color":"#0059a9","colorDark":"#00294f","band":0,"off":[-1.7,1.1]}},{"type":"Feature","geometry":{"type":"Point","coordinates":[22.969153,39.381185]},"properties":{"line":"7","mode":"bus","color":"#0059a9","colorDark":"#00294f","band":0,"off":[1.7,1.1]}},{"type":"Feature","geometry":{"type":"Point","coordinates":[22.972441,39.384758]},"properties":{"name":"Άγιος Ονούφριος (Τέρμα)","band":0,"modes":"bus","arr":["4"],"off":[0,-0.8]}},{"type":"Feature","geometry":{"type":"Point","coordinates":[22.972441,39.384758]},"properties":{"name":"Άγιος Ονούφριος (στροφή)","band":0,"modes":"bus","arr":["4"],"off":[0,-3]}},{"type":"Feature","geometry":{"type":"Point","coordinates":[22.972441,39.384758]},"properties":{"line":"4","mode":"bus","color":"#0059a9","colorDark":"#00294f","band":0,"off":[0,1.1]}},{"type":"Feature","geometry":{"type":"Point","coordinates":[22.998257,39.383759]},"properties":{"name":"Τέρμα Κατηχώρη","band":0,"modes":"bus","arr":["4"],"off":[0,-0.8]}},{"type":"Feature","geometry":{"type":"Point","coordinates":[22.998257,39.383759]},"properties":{"line":"4","mode":"bus","color":"#0059a9","colorDark":"#00294f","band":0,"off":[0,1.1]}},{"type":"Feature","geometry":{"type":"Point","coordinates":[23.057933,39.328833]},"properties":{"name":"Τέρμα Λεχώνια","band":0,"modes":"bus","arr":["5"],"off":[0,-0.8]}},{"type":"Feature","geometry":{"type":"Point","coordinates":[23.057933,39.328833]},"properties":{"line":"5","mode":"bus","color":"#0059a9","colorDark":"#00294f","band":0,"off":[0,1.1]}},{"type":"Feature","geometry":{"type":"Point","coordinates":[23.048714,39.314808]},"properties":{"name":"Τέρμα Πλατανίδια","band":0,"modes":"bus","arr":["5"],"off":[0,-0.8]}},{"type":"Feature","geometry":{"type":"Point","coordinates":[23.048714,39.314808]},"properties":{"line":"5","mode":"bus","color":"#0059a9","colorDark":"#00294f","band":0,"off":[0,1.1]}},{"type":"Feature","geometry":{"type":"Point","coordinates":[22.925526,39.318829]},"properties":{"name":"Τέρμα Αλυκών","band":0,"modes":"bus","arr":["6"],"off":[0,-0.8]}},{"type":"Feature","geometry":{"type":"Point","coordinates":[22.925526,39.318829]},"properties":{"line":"6","mode":"bus","color":"#0059a9","colorDark":"#00294f","band":0,"off":[0,1.1]}},{"type":"Feature","geometry":{"type":"Point","coordinates":[22.938858,39.302802]},"properties":{"name":"Άγιος Στέφανος","band":0,"modes":"bus","arr":["6"],"off":[0,-0.8]}},{"type":"Feature","geometry":{"type":"Point","coordinates":[22.938858,39.302802]},"properties":{"line":"6","mode":"bus","color":"#0059a9","colorDark":"#00294f","band":0,"off":[0,1.1]}},{"type":"Feature","geometry":{"type":"Point","coordinates":[22.985926,39.371582]},"properties":{"name":"Πλατεία Άλλης Μεριάς","band":0,"modes":"bus","arr":["7"],"off":[0,-0.8]}},{"type":"Feature","geometry":{"type":"Point","coordinates":[22.985926,39.371582]},"properties":{"name":"Άλλη Μεριά 4","band":0,"modes":"bus","arr":["7"],"off":[0,-3]}},{"type":"Feature","geometry":{"type":"Point","coordinates":[22.985926,39.371582]},"properties":{"line":"7","mode":"bus","color":"#0059a9","colorDark":"#00294f","band":0,"off":[0,1.1]}},{"type":"Feature","geometry":{"type":"Point","coordinates":[22.892314,39.356659]},"properties":{"name":"Τελική στάση Διμήνι","band":0,"modes":"bus","arr":["8"],"off":[0,-0.8]}},{"type":"Feature","geometry":{"type":"Point","coordinates":[22.892314,39.356659]},"properties":{"line":"8","mode":"bus","color":"#0059a9","colorDark":"#00294f","band":0,"off":[0,1.1]}},{"type":"Feature","geometry":{"type":"Point","coordinates":[22.908358,39.391687]},"properties":{"name":"Τέρμα Μελισσάτικα","band":0,"modes":"bus","arr":["9"],"off":[0,-0.8]}},{"type":"Feature","geometry":{"type":"Point","coordinates":[22.908358,39.391687]},"properties":{"line":"9","mode":"bus","color":"#0059a9","colorDark":"#00294f","band":0,"off":[0,1.1]}},{"type":"Feature","geometry":{"type":"Point","coordinates":[22.891392,39.377324]},"properties":{"name":"Νέο Κοιμητήριο 2","band":0,"modes":"bus","arr":["11"],"off":[0,-0.8]}},{"type":"Feature","geometry":{"type":"Point","coordinates":[22.891392,39.377324]},"properties":{"name":"Νέο Κοιμητήριο 1","band":0,"modes":"bus","arr":["11"],"off":[0,-1.9]}},{"type":"Feature","geometry":{"type":"Point","coordinates":[22.891392,39.377324]},"properties":{"line":"11","mode":"bus","color":"#0059a9","colorDark":"#00294f","band":0,"off":[0,1.1]}},{"type":"Feature","geometry":{"type":"Point","coordinates":[22.933562,39.368178]},"properties":{"name":"Old City","band":0,"modes":"bus","arr":["15"],"off":[0,-0.8]}},{"type":"Feature","geometry":{"type":"Point","coordinates":[22.933562,39.368178]},"properties":{"line":"15","mode":"bus","color":"#0059a9","colorDark":"#00294f","band":0,"off":[0,1.1]}},{"type":"Feature","geometry":{"type":"Point","coordinates":[22.955725,39.38502]},"properties":{"name":"Αγία Κυριακή 3","band":0,"modes":"bus","arr":["49"],"off":[0,-0.8]}},{"type":"Feature","geometry":{"type":"Point","coordinates":[22.955725,39.38502]},"properties":{"line":"49","mode":"bus","color":"#0059a9","colorDark":"#00294f","band":0,"off":[0,1.1]}},{"type":"Feature","geometry":{"type":"Point","coordinates":[22.962106,39.350945]},"properties":{"name":"Πλαστήρα","band":1,"modes":"bus","arr":["1","3","15"],"off":[0,-0.8]}},{"type":"Feature","geometry":{"type":"Point","coordinates":[22.962106,39.350945]},"properties":{"name":"Μουσείο Τέρμα","band":1,"modes":"bus","arr":["1","3","15"],"off":[0,-1.9]}},{"type":"Feature","geometry":{"type":"Point","coordinates":[22.962106,39.350945]},"properties":{"name":"Άναυρος","band":1,"modes":"bus","arr":["1","3","15"],"off":[0,-3]}},{"type":"Feature","geometry":{"type":"Point","coordinates":[22.962106,39.350945]},"properties":{"line":"1","mode":"bus","color":"#0059a9","colorDark":"#00294f","band":1,"off":[-3.4,1.1]}},{"type":"Feature","geometry":{"type":"Point","coordinates":[22.962106,39.350945]},"properties":{"line":"3","mode":"bus","color":"#0059a9","colorDark":"#00294f","band":1,"off":[0,1.1]}},{"type":"Feature","geometry":{"type":"Point","coordinates":[22.962106,39.350945]},"properties":{"line":"15","mode":"bus","color":"#0059a9","colorDark":"#00294f","band":1,"off":[3.4,1.1]}},{"type":"Feature","geometry":{"type":"Point","coordinates":[22.9228,39.371998]},"properties":{"name":"Πέτρου και Παύλου","band":1,"modes":"bus","arr":["1"],"off":[0,-0.8]}},{"type":"Feature","geometry":{"type":"Point","coordinates":[22.9228,39.371998]},"properties":{"line":"1","mode":"bus","color":"#0059a9","colorDark":"#00294f","band":1,"off":[0,1.1]}},{"type":"Feature","geometry":{"type":"Point","coordinates":[22.933027,39.361156]},"properties":{"name":"Υπεραστικό ΚΤΕΛ Βόλου","band":1,"modes":"bus","arr":["2","4","5","7","9","11","49"],"off":[0,-0.8]}},{"type":"Feature","geometry":{"type":"Point","coordinates":[22.933027,39.361156]},"properties":{"name":"Κεντρική Αφετηρία","band":1,"modes":"bus","arr":["2","4","5","7","9","11","49"],"off":[0,-3]}},{"type":"Feature","geometry":{"type":"Point","coordinates":[22.933027,39.361156]},"properties":{"line":"2","mode":"bus","color":"#0059a9","colorDark":"#00294f","band":1,"off":[-6.8,1.1]}},{"type":"Feature","geometry":{"type":"Point","coordinates":[22.933027,39.361156]},"properties":{"line":"4","mode":"bus","color":"#0059a9","colorDark":"#00294f","band":1,"off":[-3.4,1.1]}},{"type":"Feature","geometry":{"type":"Point","coordinates":[22.933027,39.361156]},"properties":{"line":"5","mode":"bus","color":"#0059a9","colorDark":"#00294f","band":1,"off":[0,1.1]}},{"type":"Feature","geometry":{"type":"Point","coordinates":[22.933027,39.361156]},"properties":{"line":"7","mode":"bus","color":"#0059a9","colorDark":"#00294f","band":1,"off":[3.4,1.1]}},{"type":"Feature","geometry":{"type":"Point","coordinates":[22.933027,39.361156]},"properties":{"line":"9","mode":"bus","color":"#0059a9","colorDark":"#00294f","band":1,"off":[6.8,1.1]}},{"type":"Feature","geometry":{"type":"Point","coordinates":[22.933027,39.361156]},"properties":{"line":"11","mode":"bus","color":"#0059a9","colorDark":"#00294f","band":1,"off":[-1.7,3.1]}},{"type":"Feature","geometry":{"type":"Point","coordinates":[22.933027,39.361156]},"properties":{"line":"49","mode":"bus","color":"#0059a9","colorDark":"#00294f","band":1,"off":[1.7,3.1]}},{"type":"Feature","geometry":{"type":"Point","coordinates":[22.941724,39.386658]},"properties":{"name":"Πάρκο Τέρμα (Νο2)","band":1,"modes":"bus","arr":["2"],"off":[0,-0.8]}},{"type":"Feature","geometry":{"type":"Point","coordinates":[22.941724,39.386658]},"properties":{"line":"2","mode":"bus","color":"#0059a9","colorDark":"#00294f","band":1,"off":[0,1.1]}},{"type":"Feature","geometry":{"type":"Point","coordinates":[22.918112,39.373118]},"properties":{"name":"ΜΕΤΚΑ","band":1,"modes":"bus","arr":["3"],"off":[0,-0.8]}},{"type":"Feature","geometry":{"type":"Point","coordinates":[22.918112,39.373118]},"properties":{"line":"3","mode":"bus","color":"#0059a9","colorDark":"#00294f","band":1,"off":[0,1.1]}},{"type":"Feature","geometry":{"type":"Point","coordinates":[22.92651,39.356945]},"properties":{"name":"Ύδρας","band":1,"modes":"bus","arr":["4","6","8"],"off":[0,-0.8]}},{"type":"Feature","geometry":{"type":"Point","coordinates":[22.92651,39.356945]},"properties":{"name":"Τορούτζα","band":1,"modes":"bus","arr":["4","6","8"],"off":[0,-1.9]}},{"type":"Feature","geometry":{"type":"Point","coordinates":[22.92651,39.356945]},"properties":{"line":"4","mode":"bus","color":"#0059a9","colorDark":"#00294f","band":1,"off":[-3.4,1.1]}},{"type":"Feature","geometry":{"type":"Point","coordinates":[22.92651,39.356945]},"properties":{"line":"6","mode":"bus","color":"#0059a9","colorDark":"#00294f","band":1,"off":[0,1.1]}},{"type":"Feature","geometry":{"type":"Point","coordinates":[22.92651,39.356945]},"properties":{"line":"8","mode":"bus","color":"#0059a9","colorDark":"#00294f","band":1,"off":[3.4,1.1]}},{"type":"Feature","geometry":{"type":"Point","coordinates":[22.969153,39.381185]},"properties":{"name":"Αηδονοφωλιές","band":1,"modes":"bus","arr":["4","7"],"off":[0,-0.8]}},{"type":"Feature","geometry":{"type":"Point","coordinates":[22.969153,39.381185]},"properties":{"line":"4","mode":"bus","color":"#0059a9","colorDark":"#00294f","band":1,"off":[-1.7,1.1]}},{"type":"Feature","geometry":{"type":"Point","coordinates":[22.969153,39.381185]},"properties":{"line":"7","mode":"bus","color":"#0059a9","colorDark":"#00294f","band":1,"off":[1.7,1.1]}},{"type":"Feature","geometry":{"type":"Point","coordinates":[22.972441,39.384758]},"properties":{"name":"Άγιος Ονούφριος (Τέρμα)","band":1,"modes":"bus","arr":["4"],"off":[0,-0.8]}},{"type":"Feature","geometry":{"type":"Point","coordinates":[22.972441,39.384758]},"properties":{"name":"Άγιος Ονούφριος (στροφή)","band":1,"modes":"bus","arr":["4"],"off":[0,-3]}},{"type":"Feature","geometry":{"type":"Point","coordinates":[22.972441,39.384758]},"properties":{"line":"4","mode":"bus","color":"#0059a9","colorDark":"#00294f","band":1,"off":[0,1.1]}},{"type":"Feature","geometry":{"type":"Point","coordinates":[22.998257,39.383759]},"properties":{"name":"Τέρμα Κατηχώρη","band":1,"modes":"bus","arr":["4"],"off":[0,-0.8]}},{"type":"Feature","geometry":{"type":"Point","coordinates":[22.998257,39.383759]},"properties":{"line":"4","mode":"bus","color":"#0059a9","colorDark":"#00294f","band":1,"off":[0,1.1]}},{"type":"Feature","geometry":{"type":"Point","coordinates":[23.057933,39.328833]},"properties":{"name":"Τέρμα Λεχώνια","band":1,"modes":"bus","arr":["5"],"off":[0,-0.8]}},{"type":"Feature","geometry":{"type":"Point","coordinates":[23.057933,39.328833]},"properties":{"line":"5","mode":"bus","color":"#0059a9","colorDark":"#00294f","band":1,"off":[0,1.1]}},{"type":"Feature","geometry":{"type":"Point","coordinates":[23.048714,39.314808]},"properties":{"name":"Τέρμα Πλατανίδια","band":1,"modes":"bus","arr":["5"],"off":[0,-0.8]}},{"type":"Feature","geometry":{"type":"Point","coordinates":[23.048714,39.314808]},"properties":{"line":"5","mode":"bus","color":"#0059a9","colorDark":"#00294f","band":1,"off":[0,1.1]}},{"type":"Feature","geometry":{"type":"Point","coordinates":[22.925526,39.318829]},"properties":{"name":"Τέρμα Αλυκών","band":1,"modes":"bus","arr":["6"],"off":[0,-0.8]}},{"type":"Feature","geometry":{"type":"Point","coordinates":[22.925526,39.318829]},"properties":{"line":"6","mode":"bus","color":"#0059a9","colorDark":"#00294f","band":1,"off":[0,1.1]}},{"type":"Feature","geometry":{"type":"Point","coordinates":[22.938858,39.302802]},"properties":{"name":"Άγιος Στέφανος","band":1,"modes":"bus","arr":["6"],"off":[0,-0.8]}},{"type":"Feature","geometry":{"type":"Point","coordinates":[22.938858,39.302802]},"properties":{"line":"6","mode":"bus","color":"#0059a9","colorDark":"#00294f","band":1,"off":[0,1.1]}},{"type":"Feature","geometry":{"type":"Point","coordinates":[22.985926,39.371582]},"properties":{"name":"Πλατεία Άλλης Μεριάς","band":1,"modes":"bus","arr":["7"],"off":[0,-0.8]}},{"type":"Feature","geometry":{"type":"Point","coordinates":[22.985926,39.371582]},"properties":{"name":"Άλλη Μεριά 4","band":1,"modes":"bus","arr":["7"],"off":[0,-3]}},{"type":"Feature","geometry":{"type":"Point","coordinates":[22.985926,39.371582]},"properties":{"line":"7","mode":"bus","color":"#0059a9","colorDark":"#00294f","band":1,"off":[0,1.1]}},{"type":"Feature","geometry":{"type":"Point","coordinates":[22.892314,39.356659]},"properties":{"name":"Τελική στάση Διμήνι","band":1,"modes":"bus","arr":["8"],"off":[0,-0.8]}},{"type":"Feature","geometry":{"type":"Point","coordinates":[22.892314,39.356659]},"properties":{"line":"8","mode":"bus","color":"#0059a9","colorDark":"#00294f","band":1,"off":[0,1.1]}},{"type":"Feature","geometry":{"type":"Point","coordinates":[22.908358,39.391687]},"properties":{"name":"Τέρμα Μελισσάτικα","band":1,"modes":"bus","arr":["9"],"off":[0,-0.8]}},{"type":"Feature","geometry":{"type":"Point","coordinates":[22.908358,39.391687]},"properties":{"line":"9","mode":"bus","color":"#0059a9","colorDark":"#00294f","band":1,"off":[0,1.1]}},{"type":"Feature","geometry":{"type":"Point","coordinates":[22.891392,39.377324]},"properties":{"name":"Νέο Κοιμητήριο 2","band":1,"modes":"bus","arr":["11"],"off":[0,-0.8]}},{"type":"Feature","geometry":{"type":"Point","coordinates":[22.891392,39.377324]},"properties":{"name":"Νέο Κοιμητήριο 1","band":1,"modes":"bus","arr":["11"],"off":[0,-1.9]}},{"type":"Feature","geometry":{"type":"Point","coordinates":[22.891392,39.377324]},"properties":{"line":"11","mode":"bus","color":"#0059a9","colorDark":"#00294f","band":1,"off":[0,1.1]}},{"type":"Feature","geometry":{"type":"Point","coordinates":[22.933562,39.368178]},"properties":{"name":"Old City","band":1,"modes":"bus","arr":["15"],"off":[0,-0.8]}},{"type":"Feature","geometry":{"type":"Point","coordinates":[22.933562,39.368178]},"properties":{"line":"15","mode":"bus","color":"#0059a9","colorDark":"#00294f","band":1,"off":[0,1.1]}},{"type":"Feature","geometry":{"type":"Point","coordinates":[22.955725,39.38502]},"properties":{"name":"Αγία Κυριακή 3","band":1,"modes":"bus","arr":["49"],"off":[0,-0.8]}},{"type":"Feature","geometry":{"type":"Point","coordinates":[22.955725,39.38502]},"properties":{"line":"49","mode":"bus","color":"#0059a9","colorDark":"#00294f","band":1,"off":[0,1.1]}},{"type":"Feature","geometry":{"type":"Point","coordinates":[22.963377,39.350726]},"properties":{"name":"Άναυρος","band":2,"modes":"bus","arr":["1"],"off":[0,-0.8]}},{"type":"Feature","geometry":{"type":"Point","coordinates":[22.963377,39.350726]},"properties":{"line":"1","mode":"bus","color":"#0059a9","colorDark":"#00294f","band":2,"off":[0,1.1]}},{"type":"Feature","geometry":{"type":"Point","coordinates":[22.9228,39.371998]},"properties":{"name":"Πέτρου και Παύλου","band":2,"modes":"bus","arr":["1"],"off":[0,-0.8]}},{"type":"Feature","geometry":{"type":"Point","coordinates":[22.9228,39.371998]},"properties":{"line":"1","mode":"bus","color":"#0059a9","colorDark":"#00294f","band":2,"off":[0,1.1]}},{"type":"Feature","geometry":{"type":"Point","coordinates":[22.933027,39.361156]},"properties":{"name":"Υπεραστικό ΚΤΕΛ Βόλου","band":2,"modes":"bus","arr":["2","4","5","7","9","11","49"],"off":[0,-0.8]}},{"type":"Feature","geometry":{"type":"Point","coordinates":[22.933027,39.361156]},"properties":{"name":"Κεντρική Αφετηρία","band":2,"modes":"bus","arr":["2","4","5","7","9","11","49"],"off":[0,-3]}},{"type":"Feature","geometry":{"type":"Point","coordinates":[22.933027,39.361156]},"properties":{"line":"2","mode":"bus","color":"#0059a9","colorDark":"#00294f","band":2,"off":[-6.8,1.1]}},{"type":"Feature","geometry":{"type":"Point","coordinates":[22.933027,39.361156]},"properties":{"line":"4","mode":"bus","color":"#0059a9","colorDark":"#00294f","band":2,"off":[-3.4,1.1]}},{"type":"Feature","geometry":{"type":"Point","coordinates":[22.933027,39.361156]},"properties":{"line":"5","mode":"bus","color":"#0059a9","colorDark":"#00294f","band":2,"off":[0,1.1]}},{"type":"Feature","geometry":{"type":"Point","coordinates":[22.933027,39.361156]},"properties":{"line":"7","mode":"bus","color":"#0059a9","colorDark":"#00294f","band":2,"off":[3.4,1.1]}},{"type":"Feature","geometry":{"type":"Point","coordinates":[22.933027,39.361156]},"properties":{"line":"9","mode":"bus","color":"#0059a9","colorDark":"#00294f","band":2,"off":[6.8,1.1]}},{"type":"Feature","geometry":{"type":"Point","coordinates":[22.933027,39.361156]},"properties":{"line":"11","mode":"bus","color":"#0059a9","colorDark":"#00294f","band":2,"off":[-1.7,3.1]}},{"type":"Feature","geometry":{"type":"Point","coordinates":[22.933027,39.361156]},"properties":{"line":"49","mode":"bus","color":"#0059a9","colorDark":"#00294f","band":2,"off":[1.7,3.1]}},{"type":"Feature","geometry":{"type":"Point","coordinates":[22.941724,39.386658]},"properties":{"name":"Πάρκο Τέρμα (Νο2)","band":2,"modes":"bus","arr":["2"],"off":[0,-0.8]}},{"type":"Feature","geometry":{"type":"Point","coordinates":[22.941724,39.386658]},"properties":{"line":"2","mode":"bus","color":"#0059a9","colorDark":"#00294f","band":2,"off":[0,1.1]}},{"type":"Feature","geometry":{"type":"Point","coordinates":[22.961471,39.351054]},"properties":{"name":"Πλαστήρα","band":2,"modes":"bus","arr":["3","15"],"off":[0,-0.8]}},{"type":"Feature","geometry":{"type":"Point","coordinates":[22.961471,39.351054]},"properties":{"name":"Μουσείο Τέρμα","band":2,"modes":"bus","arr":["3","15"],"off":[0,-1.9]}},{"type":"Feature","geometry":{"type":"Point","coordinates":[22.961471,39.351054]},"properties":{"line":"3","mode":"bus","color":"#0059a9","colorDark":"#00294f","band":2,"off":[-1.7,1.1]}},{"type":"Feature","geometry":{"type":"Point","coordinates":[22.961471,39.351054]},"properties":{"line":"15","mode":"bus","color":"#0059a9","colorDark":"#00294f","band":2,"off":[1.7,1.1]}},{"type":"Feature","geometry":{"type":"Point","coordinates":[22.918112,39.373118]},"properties":{"name":"ΜΕΤΚΑ","band":2,"modes":"bus","arr":["3"],"off":[0,-0.8]}},{"type":"Feature","geometry":{"type":"Point","coordinates":[22.918112,39.373118]},"properties":{"line":"3","mode":"bus","color":"#0059a9","colorDark":"#00294f","band":2,"off":[0,1.1]}},{"type":"Feature","geometry":{"type":"Point","coordinates":[22.92651,39.356945]},"properties":{"name":"Ύδρας","band":2,"modes":"bus","arr":["4","6","8"],"off":[0,-0.8]}},{"type":"Feature","geometry":{"type":"Point","coordinates":[22.92651,39.356945]},"properties":{"name":"Τορούτζα","band":2,"modes":"bus","arr":["4","6","8"],"off":[0,-1.9]}},{"type":"Feature","geometry":{"type":"Point","coordinates":[22.92651,39.356945]},"properties":{"line":"4","mode":"bus","color":"#0059a9","colorDark":"#00294f","band":2,"off":[-3.4,1.1]}},{"type":"Feature","geometry":{"type":"Point","coordinates":[22.92651,39.356945]},"properties":{"line":"6","mode":"bus","color":"#0059a9","colorDark":"#00294f","band":2,"off":[0,1.1]}},{"type":"Feature","geometry":{"type":"Point","coordinates":[22.92651,39.356945]},"properties":{"line":"8","mode":"bus","color":"#0059a9","colorDark":"#00294f","band":2,"off":[3.4,1.1]}},{"type":"Feature","geometry":{"type":"Point","coordinates":[22.969153,39.381185]},"properties":{"name":"Αηδονοφωλιές","band":2,"modes":"bus","arr":["4","7"],"off":[0,-0.8]}},{"type":"Feature","geometry":{"type":"Point","coordinates":[22.969153,39.381185]},"properties":{"line":"4","mode":"bus","color":"#0059a9","colorDark":"#00294f","band":2,"off":[-1.7,1.1]}},{"type":"Feature","geometry":{"type":"Point","coordinates":[22.969153,39.381185]},"properties":{"line":"7","mode":"bus","color":"#0059a9","colorDark":"#00294f","band":2,"off":[1.7,1.1]}},{"type":"Feature","geometry":{"type":"Point","coordinates":[22.971032,39.384834]},"properties":{"name":"Άγιος Ονούφριος (στροφή)","band":2,"modes":"bus","arr":["4"],"off":[0,-0.8]}},{"type":"Feature","geometry":{"type":"Point","coordinates":[22.971032,39.384834]},"properties":{"line":"4","mode":"bus","color":"#0059a9","colorDark":"#00294f","band":2,"off":[0,1.1]}},{"type":"Feature","geometry":{"type":"Point","coordinates":[22.97385,39.384681]},"properties":{"name":"Άγιος Ονούφριος (Τέρμα)","band":2,"modes":"bus","arr":["4"],"off":[0,-0.8]}},{"type":"Feature","geometry":{"type":"Point","coordinates":[22.97385,39.384681]},"properties":{"line":"4","mode":"bus","color":"#0059a9","colorDark":"#00294f","band":2,"off":[0,1.1]}},{"type":"Feature","geometry":{"type":"Point","coordinates":[22.998257,39.383759]},"properties":{"name":"Τέρμα Κατηχώρη","band":2,"modes":"bus","arr":["4"],"off":[0,-0.8]}},{"type":"Feature","geometry":{"type":"Point","coordinates":[22.998257,39.383759]},"properties":{"line":"4","mode":"bus","color":"#0059a9","colorDark":"#00294f","band":2,"off":[0,1.1]}},{"type":"Feature","geometry":{"type":"Point","coordinates":[23.057933,39.328833]},"properties":{"name":"Τέρμα Λεχώνια","band":2,"modes":"bus","arr":["5"],"off":[0,-0.8]}},{"type":"Feature","geometry":{"type":"Point","coordinates":[23.057933,39.328833]},"properties":{"line":"5","mode":"bus","color":"#0059a9","colorDark":"#00294f","band":2,"off":[0,1.1]}},{"type":"Feature","geometry":{"type":"Point","coordinates":[23.048714,39.314808]},"properties":{"name":"Τέρμα Πλατανίδια","band":2,"modes":"bus","arr":["5"],"off":[0,-0.8]}},{"type":"Feature","geometry":{"type":"Point","coordinates":[23.048714,39.314808]},"properties":{"line":"5","mode":"bus","color":"#0059a9","colorDark":"#00294f","band":2,"off":[0,1.1]}},{"type":"Feature","geometry":{"type":"Point","coordinates":[22.925526,39.318829]},"properties":{"name":"Τέρμα Αλυκών","band":2,"modes":"bus","arr":["6"],"off":[0,-0.8]}},{"type":"Feature","geometry":{"type":"Point","coordinates":[22.925526,39.318829]},"properties":{"line":"6","mode":"bus","color":"#0059a9","colorDark":"#00294f","band":2,"off":[0,1.1]}},{"type":"Feature","geometry":{"type":"Point","coordinates":[22.938858,39.302802]},"properties":{"name":"Άγιος Στέφανος","band":2,"modes":"bus","arr":["6"],"off":[0,-0.8]}},{"type":"Feature","geometry":{"type":"Point","coordinates":[22.938858,39.302802]},"properties":{"line":"6","mode":"bus","color":"#0059a9","colorDark":"#00294f","band":2,"off":[0,1.1]}},{"type":"Feature","geometry":{"type":"Point","coordinates":[22.984796,39.37074]},"properties":{"name":"Πλατεία Άλλης Μεριάς","band":2,"modes":"bus","arr":["7"],"off":[0,-0.8]}},{"type":"Feature","geometry":{"type":"Point","coordinates":[22.984796,39.37074]},"properties":{"line":"7","mode":"bus","color":"#0059a9","colorDark":"#00294f","band":2,"off":[0,1.1]}},{"type":"Feature","geometry":{"type":"Point","coordinates":[22.987056,39.372423]},"properties":{"name":"Άλλη Μεριά 4","band":2,"modes":"bus","arr":["7"],"off":[0,-0.8]}},{"type":"Feature","geometry":{"type":"Point","coordinates":[22.987056,39.372423]},"properties":{"line":"7","mode":"bus","color":"#0059a9","colorDark":"#00294f","band":2,"off":[0,1.1]}},{"type":"Feature","geometry":{"type":"Point","coordinates":[22.892314,39.356659]},"properties":{"name":"Τελική στάση Διμήνι","band":2,"modes":"bus","arr":["8"],"off":[0,-0.8]}},{"type":"Feature","geometry":{"type":"Point","coordinates":[22.892314,39.356659]},"properties":{"line":"8","mode":"bus","color":"#0059a9","colorDark":"#00294f","band":2,"off":[0,1.1]}},{"type":"Feature","geometry":{"type":"Point","coordinates":[22.908358,39.391687]},"properties":{"name":"Τέρμα Μελισσάτικα","band":2,"modes":"bus","arr":["9"],"off":[0,-0.8]}},{"type":"Feature","geometry":{"type":"Point","coordinates":[22.908358,39.391687]},"properties":{"line":"9","mode":"bus","color":"#0059a9","colorDark":"#00294f","band":2,"off":[0,1.1]}},{"type":"Feature","geometry":{"type":"Point","coordinates":[22.891759,39.376603]},"properties":{"name":"Νέο Κοιμητήριο 2","band":2,"modes":"bus","arr":["11"],"off":[0,-0.8]}},{"type":"Feature","geometry":{"type":"Point","coordinates":[22.891759,39.376603]},"properties":{"line":"11","mode":"bus","color":"#0059a9","colorDark":"#00294f","band":2,"off":[0,1.1]}},{"type":"Feature","geometry":{"type":"Point","coordinates":[22.891025,39.378045]},"properties":{"name":"Νέο Κοιμητήριο 1","band":2,"modes":"bus","arr":["11"],"off":[0,-0.8]}},{"type":"Feature","geometry":{"type":"Point","coordinates":[22.891025,39.378045]},"properties":{"line":"11","mode":"bus","color":"#0059a9","colorDark":"#00294f","band":2,"off":[0,1.1]}},{"type":"Feature","geometry":{"type":"Point","coordinates":[22.933562,39.368178]},"properties":{"name":"Old City","band":2,"modes":"bus","arr":["15"],"off":[0,-0.8]}},{"type":"Feature","geometry":{"type":"Point","coordinates":[22.933562,39.368178]},"properties":{"line":"15","mode":"bus","color":"#0059a9","colorDark":"#00294f","band":2,"off":[0,1.1]}},{"type":"Feature","geometry":{"type":"Point","coordinates":[22.955725,39.38502]},"properties":{"name":"Αγία Κυριακή 3","band":2,"modes":"bus","arr":["49"],"off":[0,-0.8]}},{"type":"Feature","geometry":{"type":"Point","coordinates":[22.955725,39.38502]},"properties":{"line":"49","mode":"bus","color":"#0059a9","colorDark":"#00294f","band":2,"off":[0,1.1]}},{"type":"Feature","geometry":{"type":"Point","coordinates":[22.963377,39.350726]},"properties":{"name":"Άναυρος","band":3,"modes":"bus","arr":["1"],"off":[0,-0.8]}},{"type":"Feature","geometry":{"type":"Point","coordinates":[22.963377,39.350726]},"properties":{"line":"1","mode":"bus","color":"#0059a9","colorDark":"#00294f","band":3,"off":[0,1.1]}},{"type":"Feature","geometry":{"type":"Point","coordinates":[22.9228,39.371998]},"properties":{"name":"Πέτρου και Παύλου","band":3,"modes":"bus","arr":["1"],"off":[0,-0.8]}},{"type":"Feature","geometry":{"type":"Point","coordinates":[22.9228,39.371998]},"properties":{"line":"1","mode":"bus","color":"#0059a9","colorDark":"#00294f","band":3,"off":[0,1.1]}},{"type":"Feature","geometry":{"type":"Point","coordinates":[22.933027,39.361156]},"properties":{"name":"Υπεραστικό ΚΤΕΛ Βόλου","band":3,"modes":"bus","arr":["2","4","5","7","9","11","49"],"off":[0,-0.8]}},{"type":"Feature","geometry":{"type":"Point","coordinates":[22.933027,39.361156]},"properties":{"name":"Κεντρική Αφετηρία","band":3,"modes":"bus","arr":["2","4","5","7","9","11","49"],"off":[0,-3]}},{"type":"Feature","geometry":{"type":"Point","coordinates":[22.933027,39.361156]},"properties":{"line":"2","mode":"bus","color":"#0059a9","colorDark":"#00294f","band":3,"off":[-6.8,1.1]}},{"type":"Feature","geometry":{"type":"Point","coordinates":[22.933027,39.361156]},"properties":{"line":"4","mode":"bus","color":"#0059a9","colorDark":"#00294f","band":3,"off":[-3.4,1.1]}},{"type":"Feature","geometry":{"type":"Point","coordinates":[22.933027,39.361156]},"properties":{"line":"5","mode":"bus","color":"#0059a9","colorDark":"#00294f","band":3,"off":[0,1.1]}},{"type":"Feature","geometry":{"type":"Point","coordinates":[22.933027,39.361156]},"properties":{"line":"7","mode":"bus","color":"#0059a9","colorDark":"#00294f","band":3,"off":[3.4,1.1]}},{"type":"Feature","geometry":{"type":"Point","coordinates":[22.933027,39.361156]},"properties":{"line":"9","mode":"bus","color":"#0059a9","colorDark":"#00294f","band":3,"off":[6.8,1.1]}},{"type":"Feature","geometry":{"type":"Point","coordinates":[22.933027,39.361156]},"properties":{"line":"11","mode":"bus","color":"#0059a9","colorDark":"#00294f","band":3,"off":[-1.7,3.1]}},{"type":"Feature","geometry":{"type":"Point","coordinates":[22.933027,39.361156]},"properties":{"line":"49","mode":"bus","color":"#0059a9","colorDark":"#00294f","band":3,"off":[1.7,3.1]}},{"type":"Feature","geometry":{"type":"Point","coordinates":[22.941724,39.386658]},"properties":{"name":"Πάρκο Τέρμα (Νο2)","band":3,"modes":"bus","arr":["2"],"off":[0,-0.8]}},{"type":"Feature","geometry":{"type":"Point","coordinates":[22.941724,39.386658]},"properties":{"line":"2","mode":"bus","color":"#0059a9","colorDark":"#00294f","band":3,"off":[0,1.1]}},{"type":"Feature","geometry":{"type":"Point","coordinates":[22.961471,39.351054]},"properties":{"name":"Πλαστήρα","band":3,"modes":"bus","arr":["3","15"],"off":[0,-0.8]}},{"type":"Feature","geometry":{"type":"Point","coordinates":[22.961471,39.351054]},"properties":{"name":"Μουσείο Τέρμα","band":3,"modes":"bus","arr":["3","15"],"off":[0,-1.9]}},{"type":"Feature","geometry":{"type":"Point","coordinates":[22.961471,39.351054]},"properties":{"line":"3","mode":"bus","color":"#0059a9","colorDark":"#00294f","band":3,"off":[-1.7,1.1]}},{"type":"Feature","geometry":{"type":"Point","coordinates":[22.961471,39.351054]},"properties":{"line":"15","mode":"bus","color":"#0059a9","colorDark":"#00294f","band":3,"off":[1.7,1.1]}},{"type":"Feature","geometry":{"type":"Point","coordinates":[22.918112,39.373118]},"properties":{"name":"ΜΕΤΚΑ","band":3,"modes":"bus","arr":["3"],"off":[0,-0.8]}},{"type":"Feature","geometry":{"type":"Point","coordinates":[22.918112,39.373118]},"properties":{"line":"3","mode":"bus","color":"#0059a9","colorDark":"#00294f","band":3,"off":[0,1.1]}},{"type":"Feature","geometry":{"type":"Point","coordinates":[22.926347,39.357175]},"properties":{"name":"Ύδρας","band":3,"modes":"bus","arr":["4","6","8"],"off":[0,-0.8]}},{"type":"Feature","geometry":{"type":"Point","coordinates":[22.926347,39.357175]},"properties":{"line":"4","mode":"bus","color":"#0059a9","colorDark":"#00294f","band":3,"off":[-3.4,1.1]}},{"type":"Feature","geometry":{"type":"Point","coordinates":[22.926347,39.357175]},"properties":{"line":"6","mode":"bus","color":"#0059a9","colorDark":"#00294f","band":3,"off":[0,1.1]}},{"type":"Feature","geometry":{"type":"Point","coordinates":[22.926347,39.357175]},"properties":{"line":"8","mode":"bus","color":"#0059a9","colorDark":"#00294f","band":3,"off":[3.4,1.1]}},{"type":"Feature","geometry":{"type":"Point","coordinates":[22.969153,39.381185]},"properties":{"name":"Αηδονοφωλιές","band":3,"modes":"bus","arr":["4","7"],"off":[0,-0.8]}},{"type":"Feature","geometry":{"type":"Point","coordinates":[22.969153,39.381185]},"properties":{"line":"4","mode":"bus","color":"#0059a9","colorDark":"#00294f","band":3,"off":[-1.7,1.1]}},{"type":"Feature","geometry":{"type":"Point","coordinates":[22.969153,39.381185]},"properties":{"line":"7","mode":"bus","color":"#0059a9","colorDark":"#00294f","band":3,"off":[1.7,1.1]}},{"type":"Feature","geometry":{"type":"Point","coordinates":[22.971032,39.384834]},"properties":{"name":"Άγιος Ονούφριος (στροφή)","band":3,"modes":"bus","arr":["4"],"off":[0,-0.8]}},{"type":"Feature","geometry":{"type":"Point","coordinates":[22.971032,39.384834]},"properties":{"line":"4","mode":"bus","color":"#0059a9","colorDark":"#00294f","band":3,"off":[0,1.1]}},{"type":"Feature","geometry":{"type":"Point","coordinates":[22.97385,39.384681]},"properties":{"name":"Άγιος Ονούφριος (Τέρμα)","band":3,"modes":"bus","arr":["4"],"off":[0,-0.8]}},{"type":"Feature","geometry":{"type":"Point","coordinates":[22.97385,39.384681]},"properties":{"line":"4","mode":"bus","color":"#0059a9","colorDark":"#00294f","band":3,"off":[0,1.1]}},{"type":"Feature","geometry":{"type":"Point","coordinates":[22.998257,39.383759]},"properties":{"name":"Τέρμα Κατηχώρη","band":3,"modes":"bus","arr":["4"],"off":[0,-0.8]}},{"type":"Feature","geometry":{"type":"Point","coordinates":[22.998257,39.383759]},"properties":{"line":"4","mode":"bus","color":"#0059a9","colorDark":"#00294f","band":3,"off":[0,1.1]}},{"type":"Feature","geometry":{"type":"Point","coordinates":[22.926673,39.356715]},"properties":{"name":"Τορούτζα","band":3,"modes":"bus","arr":["4","6"],"off":[0,-0.8]}},{"type":"Feature","geometry":{"type":"Point","coordinates":[22.926673,39.356715]},"properties":{"line":"4","mode":"bus","color":"#0059a9","colorDark":"#00294f","band":3,"off":[-1.7,1.1]}},{"type":"Feature","geometry":{"type":"Point","coordinates":[22.926673,39.356715]},"properties":{"line":"6","mode":"bus","color":"#0059a9","colorDark":"#00294f","band":3,"off":[1.7,1.1]}},{"type":"Feature","geometry":{"type":"Point","coordinates":[23.057933,39.328833]},"properties":{"name":"Τέρμα Λεχώνια","band":3,"modes":"bus","arr":["5"],"off":[0,-0.8]}},{"type":"Feature","geometry":{"type":"Point","coordinates":[23.057933,39.328833]},"properties":{"line":"5","mode":"bus","color":"#0059a9","colorDark":"#00294f","band":3,"off":[0,1.1]}},{"type":"Feature","geometry":{"type":"Point","coordinates":[23.048714,39.314808]},"properties":{"name":"Τέρμα Πλατανίδια","band":3,"modes":"bus","arr":["5"],"off":[0,-0.8]}},{"type":"Feature","geometry":{"type":"Point","coordinates":[23.048714,39.314808]},"properties":{"line":"5","mode":"bus","color":"#0059a9","colorDark":"#00294f","band":3,"off":[0,1.1]}},{"type":"Feature","geometry":{"type":"Point","coordinates":[22.925526,39.318829]},"properties":{"name":"Τέρμα Αλυκών","band":3,"modes":"bus","arr":["6"],"off":[0,-0.8]}},{"type":"Feature","geometry":{"type":"Point","coordinates":[22.925526,39.318829]},"properties":{"line":"6","mode":"bus","color":"#0059a9","colorDark":"#00294f","band":3,"off":[0,1.1]}},{"type":"Feature","geometry":{"type":"Point","coordinates":[22.938858,39.302802]},"properties":{"name":"Άγιος Στέφανος","band":3,"modes":"bus","arr":["6"],"off":[0,-0.8]}},{"type":"Feature","geometry":{"type":"Point","coordinates":[22.938858,39.302802]},"properties":{"line":"6","mode":"bus","color":"#0059a9","colorDark":"#00294f","band":3,"off":[0,1.1]}},{"type":"Feature","geometry":{"type":"Point","coordinates":[22.984796,39.37074]},"properties":{"name":"Πλατεία Άλλης Μεριάς","band":3,"modes":"bus","arr":["7"],"off":[0,-0.8]}},{"type":"Feature","geometry":{"type":"Point","coordinates":[22.984796,39.37074]},"properties":{"line":"7","mode":"bus","color":"#0059a9","colorDark":"#00294f","band":3,"off":[0,1.1]}},{"type":"Feature","geometry":{"type":"Point","coordinates":[22.987056,39.372423]},"properties":{"name":"Άλλη Μεριά 4","band":3,"modes":"bus","arr":["7"],"off":[0,-0.8]}},{"type":"Feature","geometry":{"type":"Point","coordinates":[22.987056,39.372423]},"properties":{"line":"7","mode":"bus","color":"#0059a9","colorDark":"#00294f","band":3,"off":[0,1.1]}},{"type":"Feature","geometry":{"type":"Point","coordinates":[22.892314,39.356659]},"properties":{"name":"Τελική στάση Διμήνι","band":3,"modes":"bus","arr":["8"],"off":[0,-0.8]}},{"type":"Feature","geometry":{"type":"Point","coordinates":[22.892314,39.356659]},"properties":{"line":"8","mode":"bus","color":"#0059a9","colorDark":"#00294f","band":3,"off":[0,1.1]}},{"type":"Feature","geometry":{"type":"Point","coordinates":[22.908358,39.391687]},"properties":{"name":"Τέρμα Μελισσάτικα","band":3,"modes":"bus","arr":["9"],"off":[0,-0.8]}},{"type":"Feature","geometry":{"type":"Point","coordinates":[22.908358,39.391687]},"properties":{"line":"9","mode":"bus","color":"#0059a9","colorDark":"#00294f","band":3,"off":[0,1.1]}},{"type":"Feature","geometry":{"type":"Point","coordinates":[22.891759,39.376603]},"properties":{"name":"Νέο Κοιμητήριο 2","band":3,"modes":"bus","arr":["11"],"off":[0,-0.8]}},{"type":"Feature","geometry":{"type":"Point","coordinates":[22.891759,39.376603]},"properties":{"line":"11","mode":"bus","color":"#0059a9","colorDark":"#00294f","band":3,"off":[0,1.1]}},{"type":"Feature","geometry":{"type":"Point","coordinates":[22.891025,39.378045]},"properties":{"name":"Νέο Κοιμητήριο 1","band":3,"modes":"bus","arr":["11"],"off":[0,-0.8]}},{"type":"Feature","geometry":{"type":"Point","coordinates":[22.891025,39.378045]},"properties":{"line":"11","mode":"bus","color":"#0059a9","colorDark":"#00294f","band":3,"off":[0,1.1]}},{"type":"Feature","geometry":{"type":"Point","coordinates":[22.933562,39.368178]},"properties":{"name":"Old City","band":3,"modes":"bus","arr":["15"],"off":[0,-0.8]}},{"type":"Feature","geometry":{"type":"Point","coordinates":[22.933562,39.368178]},"properties":{"line":"15","mode":"bus","color":"#0059a9","colorDark":"#00294f","band":3,"off":[0,1.1]}},{"type":"Feature","geometry":{"type":"Point","coordinates":[22.955725,39.38502]},"properties":{"name":"Αγία Κυριακή 3","band":3,"modes":"bus","arr":["49"],"off":[0,-0.8]}},{"type":"Feature","geometry":{"type":"Point","coordinates":[22.955725,39.38502]},"properties":{"line":"49","mode":"bus","color":"#0059a9","colorDark":"#00294f","band":3,"off":[0,1.1]}},{"type":"Feature","geometry":{"type":"Point","coordinates":[22.963377,39.350726]},"properties":{"name":"Άναυρος","band":4,"modes":"bus","arr":["1"],"off":[0,-0.8]}},{"type":"Feature","geometry":{"type":"Point","coordinates":[22.963377,39.350726]},"properties":{"line":"1","mode":"bus","color":"#0059a9","colorDark":"#00294f","band":4,"off":[0,1.1]}},{"type":"Feature","geometry":{"type":"Point","coordinates":[22.9228,39.371998]},"properties":{"name":"Πέτρου και Παύλου","band":4,"modes":"bus","arr":["1"],"off":[0,-0.8]}},{"type":"Feature","geometry":{"type":"Point","coordinates":[22.9228,39.371998]},"properties":{"line":"1","mode":"bus","color":"#0059a9","colorDark":"#00294f","band":4,"off":[0,1.1]}},{"type":"Feature","geometry":{"type":"Point","coordinates":[22.932613,39.361521]},"properties":{"name":"Κεντρική Αφετηρία","band":4,"modes":"bus","arr":["2","4","5","7","9","11","49"],"off":[0,-0.8]}},{"type":"Feature","geometry":{"type":"Point","coordinates":[22.932613,39.361521]},"properties":{"line":"2","mode":"bus","color":"#0059a9","colorDark":"#00294f","band":4,"off":[-6.8,1.1]}},{"type":"Feature","geometry":{"type":"Point","coordinates":[22.932613,39.361521]},"properties":{"line":"4","mode":"bus","color":"#0059a9","colorDark":"#00294f","band":4,"off":[-3.4,1.1]}},{"type":"Feature","geometry":{"type":"Point","coordinates":[22.932613,39.361521]},"properties":{"line":"5","mode":"bus","color":"#0059a9","colorDark":"#00294f","band":4,"off":[0,1.1]}},{"type":"Feature","geometry":{"type":"Point","coordinates":[22.932613,39.361521]},"properties":{"line":"7","mode":"bus","color":"#0059a9","colorDark":"#00294f","band":4,"off":[3.4,1.1]}},{"type":"Feature","geometry":{"type":"Point","coordinates":[22.932613,39.361521]},"properties":{"line":"9","mode":"bus","color":"#0059a9","colorDark":"#00294f","band":4,"off":[6.8,1.1]}},{"type":"Feature","geometry":{"type":"Point","coordinates":[22.932613,39.361521]},"properties":{"line":"11","mode":"bus","color":"#0059a9","colorDark":"#00294f","band":4,"off":[-1.7,3.1]}},{"type":"Feature","geometry":{"type":"Point","coordinates":[22.932613,39.361521]},"properties":{"line":"49","mode":"bus","color":"#0059a9","colorDark":"#00294f","band":4,"off":[1.7,3.1]}},{"type":"Feature","geometry":{"type":"Point","coordinates":[22.941724,39.386658]},"properties":{"name":"Πάρκο Τέρμα (Νο2)","band":4,"modes":"bus","arr":["2"],"off":[0,-0.8]}},{"type":"Feature","geometry":{"type":"Point","coordinates":[22.941724,39.386658]},"properties":{"line":"2","mode":"bus","color":"#0059a9","colorDark":"#00294f","band":4,"off":[0,1.1]}},{"type":"Feature","geometry":{"type":"Point","coordinates":[22.933442,39.360791]},"properties":{"name":"Υπεραστικό ΚΤΕΛ Βόλου","band":4,"modes":"bus","arr":["11"],"off":[0,-0.8]}},{"type":"Feature","geometry":{"type":"Point","coordinates":[22.933442,39.360791]},"properties":{"line":"11","mode":"bus","color":"#0059a9","colorDark":"#00294f","band":4,"off":[0,1.1]}},{"type":"Feature","geometry":{"type":"Point","coordinates":[22.961871,39.350896]},"properties":{"name":"Πλαστήρα","band":4,"modes":"bus","arr":["3"],"off":[0,-0.8]}},{"type":"Feature","geometry":{"type":"Point","coordinates":[22.961871,39.350896]},"properties":{"line":"3","mode":"bus","color":"#0059a9","colorDark":"#00294f","band":4,"off":[0,1.1]}},{"type":"Feature","geometry":{"type":"Point","coordinates":[22.918112,39.373118]},"properties":{"name":"ΜΕΤΚΑ","band":4,"modes":"bus","arr":["3"],"off":[0,-0.8]}},{"type":"Feature","geometry":{"type":"Point","coordinates":[22.918112,39.373118]},"properties":{"line":"3","mode":"bus","color":"#0059a9","colorDark":"#00294f","band":4,"off":[0,1.1]}},{"type":"Feature","geometry":{"type":"Point","coordinates":[22.926347,39.357175]},"properties":{"name":"Ύδρας","band":4,"modes":"bus","arr":["4","6","8"],"off":[0,-0.8]}},{"type":"Feature","geometry":{"type":"Point","coordinates":[22.926347,39.357175]},"properties":{"line":"4","mode":"bus","color":"#0059a9","colorDark":"#00294f","band":4,"off":[-3.4,1.1]}},{"type":"Feature","geometry":{"type":"Point","coordinates":[22.926347,39.357175]},"properties":{"line":"6","mode":"bus","color":"#0059a9","colorDark":"#00294f","band":4,"off":[0,1.1]}},{"type":"Feature","geometry":{"type":"Point","coordinates":[22.926347,39.357175]},"properties":{"line":"8","mode":"bus","color":"#0059a9","colorDark":"#00294f","band":4,"off":[3.4,1.1]}},{"type":"Feature","geometry":{"type":"Point","coordinates":[22.969153,39.381185]},"properties":{"name":"Αηδονοφωλιές","band":4,"modes":"bus","arr":["4","7"],"off":[0,-0.8]}},{"type":"Feature","geometry":{"type":"Point","coordinates":[22.969153,39.381185]},"properties":{"line":"4","mode":"bus","color":"#0059a9","colorDark":"#00294f","band":4,"off":[-1.7,1.1]}},{"type":"Feature","geometry":{"type":"Point","coordinates":[22.969153,39.381185]},"properties":{"line":"7","mode":"bus","color":"#0059a9","colorDark":"#00294f","band":4,"off":[1.7,1.1]}},{"type":"Feature","geometry":{"type":"Point","coordinates":[22.971032,39.384834]},"properties":{"name":"Άγιος Ονούφριος (στροφή)","band":4,"modes":"bus","arr":["4"],"off":[0,-0.8]}},{"type":"Feature","geometry":{"type":"Point","coordinates":[22.971032,39.384834]},"properties":{"line":"4","mode":"bus","color":"#0059a9","colorDark":"#00294f","band":4,"off":[0,1.1]}},{"type":"Feature","geometry":{"type":"Point","coordinates":[22.97385,39.384681]},"properties":{"name":"Άγιος Ονούφριος (Τέρμα)","band":4,"modes":"bus","arr":["4"],"off":[0,-0.8]}},{"type":"Feature","geometry":{"type":"Point","coordinates":[22.97385,39.384681]},"properties":{"line":"4","mode":"bus","color":"#0059a9","colorDark":"#00294f","band":4,"off":[0,1.1]}},{"type":"Feature","geometry":{"type":"Point","coordinates":[22.998257,39.383759]},"properties":{"name":"Τέρμα Κατηχώρη","band":4,"modes":"bus","arr":["4"],"off":[0,-0.8]}},{"type":"Feature","geometry":{"type":"Point","coordinates":[22.998257,39.383759]},"properties":{"line":"4","mode":"bus","color":"#0059a9","colorDark":"#00294f","band":4,"off":[0,1.1]}},{"type":"Feature","geometry":{"type":"Point","coordinates":[22.926673,39.356715]},"properties":{"name":"Τορούτζα","band":4,"modes":"bus","arr":["4","6"],"off":[0,-0.8]}},{"type":"Feature","geometry":{"type":"Point","coordinates":[22.926673,39.356715]},"properties":{"line":"4","mode":"bus","color":"#0059a9","colorDark":"#00294f","band":4,"off":[-1.7,1.1]}},{"type":"Feature","geometry":{"type":"Point","coordinates":[22.926673,39.356715]},"properties":{"line":"6","mode":"bus","color":"#0059a9","colorDark":"#00294f","band":4,"off":[1.7,1.1]}},{"type":"Feature","geometry":{"type":"Point","coordinates":[23.057933,39.328833]},"properties":{"name":"Τέρμα Λεχώνια","band":4,"modes":"bus","arr":["5"],"off":[0,-0.8]}},{"type":"Feature","geometry":{"type":"Point","coordinates":[23.057933,39.328833]},"properties":{"line":"5","mode":"bus","color":"#0059a9","colorDark":"#00294f","band":4,"off":[0,1.1]}},{"type":"Feature","geometry":{"type":"Point","coordinates":[23.048714,39.314808]},"properties":{"name":"Τέρμα Πλατανίδια","band":4,"modes":"bus","arr":["5"],"off":[0,-0.8]}},{"type":"Feature","geometry":{"type":"Point","coordinates":[23.048714,39.314808]},"properties":{"line":"5","mode":"bus","color":"#0059a9","colorDark":"#00294f","band":4,"off":[0,1.1]}},{"type":"Feature","geometry":{"type":"Point","coordinates":[22.925526,39.318829]},"properties":{"name":"Τέρμα Αλυκών","band":4,"modes":"bus","arr":["6"],"off":[0,-0.8]}},{"type":"Feature","geometry":{"type":"Point","coordinates":[22.925526,39.318829]},"properties":{"line":"6","mode":"bus","color":"#0059a9","colorDark":"#00294f","band":4,"off":[0,1.1]}},{"type":"Feature","geometry":{"type":"Point","coordinates":[22.938858,39.302802]},"properties":{"name":"Άγιος Στέφανος","band":4,"modes":"bus","arr":["6"],"off":[0,-0.8]}},{"type":"Feature","geometry":{"type":"Point","coordinates":[22.938858,39.302802]},"properties":{"line":"6","mode":"bus","color":"#0059a9","colorDark":"#00294f","band":4,"off":[0,1.1]}},{"type":"Feature","geometry":{"type":"Point","coordinates":[22.984796,39.37074]},"properties":{"name":"Πλατεία Άλλης Μεριάς","band":4,"modes":"bus","arr":["7"],"off":[0,-0.8]}},{"type":"Feature","geometry":{"type":"Point","coordinates":[22.984796,39.37074]},"properties":{"line":"7","mode":"bus","color":"#0059a9","colorDark":"#00294f","band":4,"off":[0,1.1]}},{"type":"Feature","geometry":{"type":"Point","coordinates":[22.987056,39.372423]},"properties":{"name":"Άλλη Μεριά 4","band":4,"modes":"bus","arr":["7"],"off":[0,-0.8]}},{"type":"Feature","geometry":{"type":"Point","coordinates":[22.987056,39.372423]},"properties":{"line":"7","mode":"bus","color":"#0059a9","colorDark":"#00294f","band":4,"off":[0,1.1]}},{"type":"Feature","geometry":{"type":"Point","coordinates":[22.892314,39.356659]},"properties":{"name":"Τελική στάση Διμήνι","band":4,"modes":"bus","arr":["8"],"off":[0,-0.8]}},{"type":"Feature","geometry":{"type":"Point","coordinates":[22.892314,39.356659]},"properties":{"line":"8","mode":"bus","color":"#0059a9","colorDark":"#00294f","band":4,"off":[0,1.1]}},{"type":"Feature","geometry":{"type":"Point","coordinates":[22.908358,39.391687]},"properties":{"name":"Τέρμα Μελισσάτικα","band":4,"modes":"bus","arr":["9"],"off":[0,-0.8]}},{"type":"Feature","geometry":{"type":"Point","coordinates":[22.908358,39.391687]},"properties":{"line":"9","mode":"bus","color":"#0059a9","colorDark":"#00294f","band":4,"off":[0,1.1]}},{"type":"Feature","geometry":{"type":"Point","coordinates":[22.891759,39.376603]},"properties":{"name":"Νέο Κοιμητήριο 2","band":4,"modes":"bus","arr":["11"],"off":[0,-0.8]}},{"type":"Feature","geometry":{"type":"Point","coordinates":[22.891759,39.376603]},"properties":{"line":"11","mode":"bus","color":"#0059a9","colorDark":"#00294f","band":4,"off":[0,1.1]}},{"type":"Feature","geometry":{"type":"Point","coordinates":[22.891025,39.378045]},"properties":{"name":"Νέο Κοιμητήριο 1","band":4,"modes":"bus","arr":["11"],"off":[0,-0.8]}},{"type":"Feature","geometry":{"type":"Point","coordinates":[22.891025,39.378045]},"properties":{"line":"11","mode":"bus","color":"#0059a9","colorDark":"#00294f","band":4,"off":[0,1.1]}},{"type":"Feature","geometry":{"type":"Point","coordinates":[22.961071,39.351212]},"properties":{"name":"Μουσείο Τέρμα","band":4,"modes":"bus","arr":["15"],"off":[0,-0.8]}},{"type":"Feature","geometry":{"type":"Point","coordinates":[22.961071,39.351212]},"properties":{"line":"15","mode":"bus","color":"#0059a9","colorDark":"#00294f","band":4,"off":[0,1.1]}},{"type":"Feature","geometry":{"type":"Point","coordinates":[22.933562,39.368178]},"properties":{"name":"Old City","band":4,"modes":"bus","arr":["15"],"off":[0,-0.8]}},{"type":"Feature","geometry":{"type":"Point","coordinates":[22.933562,39.368178]},"properties":{"line":"15","mode":"bus","color":"#0059a9","colorDark":"#00294f","band":4,"off":[0,1.1]}},{"type":"Feature","geometry":{"type":"Point","coordinates":[22.955725,39.38502]},"properties":{"name":"Αγία Κυριακή 3","band":4,"modes":"bus","arr":["49"],"off":[0,-0.8]}},{"type":"Feature","geometry":{"type":"Point","coordinates":[22.955725,39.38502]},"properties":{"line":"49","mode":"bus","color":"#0059a9","colorDark":"#00294f","band":4,"off":[0,1.1]}}]}