{"type":"FeatureCollection","features":[{"type":"Feature","geometry":{"type":"Point","coordinates":[22.963863,39.350827]},"properties":{"lines":"1, 3, 15","color":"#0059a9","mode":"bus","arr":["1","3","15"],"angle":-29.9}},{"type":"Feature","geometry":{"type":"Point","coordinates":[22.963477,39.351928]},"properties":{"lines":"1, 3, 5, 11, 15","color":"#0059a9","mode":"bus","arr":["1","3","5","11","15"],"angle":50.8}},{"type":"Feature","geometry":{"type":"Point","coordinates":[22.957733,39.35585]},"properties":{"lines":"1, 5, 11","color":"#0059a9","mode":"bus","arr":["1","5","11"],"angle":32.2,"mi":3}},{"type":"Feature","geometry":{"type":"Point","coordinates":[22.961967,39.353345]},"properties":{"lines":"1, 5, 11","color":"#0059a9","mode":"bus","arr":["1","5","11"],"angle":50.5,"extra":1,"ei":0}},{"type":"Feature","geometry":{"type":"Point","coordinates":[22.960143,39.354587]},"properties":{"lines":"1, 5, 11","color":"#0059a9","mode":"bus","arr":["1","5","11"],"angle":37.3,"extra":1,"ei":1}},{"type":"Feature","geometry":{"type":"Point","coordinates":[22.95607,39.35667]},"properties":{"lines":"1, 5, 11","color":"#0059a9","mode":"bus","arr":["1","5","11"],"angle":32.8,"extra":1,"ei":2}},{"type":"Feature","geometry":{"type":"Point","coordinates":[22.954027,39.357706]},"properties":{"lines":"1, 5, 11","color":"#0059a9","mode":"bus","arr":["1","5","11"],"angle":33.1,"extra":1,"ei":3}},{"type":"Feature","geometry":{"type":"Point","coordinates":[22.951848,39.358162]},"properties":{"lines":"1, 5, 11","color":"#0059a9","mode":"bus","arr":["1","5","11"],"angle":-58.1}},{"type":"Feature","geometry":{"type":"Point","coordinates":[22.948703,39.359507]},"properties":{"lines":"1, 5, 11","color":"#0059a9","mode":"bus","arr":["1","5","11"],"angle":33.3,"mi":2}},{"type":"Feature","geometry":{"type":"Point","coordinates":[22.950682,39.3585]},"properties":{"lines":"1, 5, 11","color":"#0059a9","mode":"bus","arr":["1","5","11"],"angle":33.3,"extra":1,"ei":0}},{"type":"Feature","geometry":{"type":"Point","coordinates":[22.946601,39.360577]},"properties":{"lines":"1, 5, 11","color":"#0059a9","mode":"bus","arr":["1","5","11"],"angle":33.3,"extra":1,"ei":1}},{"type":"Feature","geometry":{"type":"Point","coordinates":[22.944012,39.361818]},"properties":{"lines":"1, 2, 3, 4, 5, 7, 9, 11, 15, 49","color":"#0059a9","mode":"bus","arr":["1","2","3","4","5","7","9","11","15","49"],"angle":29.8,"mi":1}},{"type":"Feature","geometry":{"type":"Point","coordinates":[22.942472,39.362284]},"properties":{"lines":"1, 2, 3, 4, 5, 7, 9, 11, 15, 49","color":"#0059a9","mode":"bus","arr":["1","2","3","4","5","7","9","11","15","49"],"angle":9.5,"extra":1,"ei":0}},{"type":"Feature","geometry":{"type":"Point","coordinates":[22.941458,39.36317]},"properties":{"lines":"1","color":"#0059a9","mode":"bus","arr":["1"],"angle":50.9,"mi":8}},{"type":"Feature","geometry":{"type":"Point","coordinates":[22.938273,39.367258]},"properties":{"lines":"1","color":"#0059a9","mode":"bus","arr":["1"],"angle":60.7,"mi":7}},{"type":"Feature","geometry":{"type":"Point","coordinates":[22.94007,39.36475]},"properties":{"lines":"1","color":"#0059a9","mode":"bus","arr":["1"],"angle":60.9,"extra":1,"ei":0}},{"type":"Feature","geometry":{"type":"Point","coordinates":[22.936521,39.369706]},"properties":{"lines":"1","color":"#0059a9","mode":"bus","arr":["1"],"angle":61.4,"extra":1,"ei":1}},{"type":"Feature","geometry":{"type":"Point","coordinates":[22.935064,39.371641]},"properties":{"lines":"1","color":"#0059a9","mode":"bus","arr":["1"],"angle":60.4,"mi":3}},{"type":"Feature","geometry":{"type":"Point","coordinates":[22.933292,39.374084]},"properties":{"lines":"1","color":"#0059a9","mode":"bus","arr":["1"],"angle":60.8}},{"type":"Feature","geometry":{"type":"Point","coordinates":[22.934239,39.372764]},"properties":{"lines":"1","color":"#0059a9","mode":"bus","arr":["1"],"angle":60.3,"extra":1,"ei":0}},{"type":"Feature","geometry":{"type":"Point","coordinates":[22.931975,39.373854]},"properties":{"lines":"1, 11","color":"#0059a9","mode":"bus","arr":["1","11"],"angle":-29.4,"mi":1}},{"type":"Feature","geometry":{"type":"Point","coordinates":[22.934203,39.374814]},"properties":{"lines":"1, 11","color":"#0059a9","mode":"bus","arr":["1","11"],"angle":-25.9,"extra":1,"ei":0}},{"type":"Feature","geometry":{"type":"Point","coordinates":[22.929943,39.372966]},"properties":{"lines":"1, 11","color":"#0059a9","mode":"bus","arr":["1","11"],"angle":-29.3,"extra":1,"ei":1}},{"type":"Feature","geometry":{"type":"Point","coordinates":[22.935177,39.375874]},"properties":{"lines":"1, 11","color":"#0059a9","mode":"bus","arr":["1","11"],"angle":76.3,"mi":2}},{"type":"Feature","geometry":{"type":"Point","coordinates":[22.932864,39.375372]},"properties":{"lines":"1, 11","color":"#0059a9","mode":"bus","arr":["1","11"],"angle":-29.7}},{"type":"Feature","geometry":{"type":"Point","coordinates":[22.929031,39.373737]},"properties":{"lines":"1, 11","color":"#0059a9","mode":"bus","arr":["1","11"],"angle":-28.9,"mi":3}},{"type":"Feature","geometry":{"type":"Point","coordinates":[22.927521,39.373142]},"properties":{"lines":"1, 11","color":"#0059a9","mode":"bus","arr":["1","11"],"angle":-24.8,"extra":1,"ei":0}},{"type":"Feature","geometry":{"type":"Point","coordinates":[22.92495,39.372428]},"properties":{"lines":"1","color":"#0059a9","mode":"bus","arr":["1"],"angle":-16.8,"mi":1}},{"type":"Feature","geometry":{"type":"Point","coordinates":[22.922532,39.373235]},"properties":{"lines":"1, 3","color":"#0059a9","mode":"bus","arr":["1","3"],"angle":73.2}},{"type":"Feature","geometry":{"type":"Point","coordinates":[22.921486,39.375973]},"properties":{"lines":"1","color":"#0059a9","mode":"bus","arr":["1"],"angle":73.5,"mi":4}},{"type":"Feature","geometry":{"type":"Point","coordinates":[22.921098,39.3772]},"properties":{"lines":"1","color":"#0059a9","mode":"bus","arr":["1"],"angle":78.1,"extra":1,"ei":0}},{"type":"Feature","geometry":{"type":"Point","coordinates":[22.921297,39.377609]},"properties":{"lines":"1","color":"#0059a9","mode":"bus","arr":["1"],"angle":-61.8,"side":-1,"mi":6}},{"type":"Feature","geometry":{"type":"Point","coordinates":[22.9231,39.378454]},"properties":{"lines":"1","color":"#0059a9","mode":"bus","arr":["1"],"angle":-23.6,"mi":5}},{"type":"Feature","geometry":{"type":"Point","coordinates":[22.924605,39.378916]},"properties":{"lines":"1","color":"#0059a9","mode":"bus","arr":["1"],"angle":-16.9,"extra":1,"ei":0}},{"type":"Feature","geometry":{"type":"Point","coordinates":[22.92639,39.375569]},"properties":{"lines":"1","color":"#0059a9","mode":"bus","arr":["1"],"angle":54.1,"mi":2}},{"type":"Feature","geometry":{"type":"Point","coordinates":[22.925336,39.378101]},"properties":{"lines":"1","color":"#0059a9","mode":"bus","arr":["1"],"angle":74.4,"extra":1,"ei":0}},{"type":"Feature","geometry":{"type":"Point","coordinates":[22.928285,39.37297]},"properties":{"lines":"1","color":"#0059a9","mode":"bus","arr":["1"],"angle":61.1,"extra":1,"ei":1}},{"type":"Feature","geometry":{"type":"Point","coordinates":[22.938381,39.36696]},"properties":{"lines":"1, 15","color":"#0059a9","mode":"bus","arr":["1","15"],"angle":60.5,"side":-1}},{"type":"Feature","geometry":{"type":"Point","coordinates":[22.936782,39.369193]},"properties":{"lines":"1, 15","color":"#0059a9","mode":"bus","arr":["1","15"],"angle":61.7,"extra":1,"ei":0,"side":-1}},{"type":"Feature","geometry":{"type":"Point","coordinates":[22.939158,39.365892]},"properties":{"lines":"1, 15","color":"#0059a9","mode":"bus","arr":["1","15"],"angle":61.1,"extra":1,"ei":1,"side":-1}},{"type":"Feature","geometry":{"type":"Point","coordinates":[22.940338,39.364239]},"properties":{"lines":"1, 15","color":"#0059a9","mode":"bus","arr":["1","15"],"angle":61.2,"extra":1,"ei":2,"side":-1}},{"type":"Feature","geometry":{"type":"Point","coordinates":[22.941352,39.363171]},"properties":{"lines":"1, 15","color":"#0059a9","mode":"bus","arr":["1","15"],"angle":51,"side":-1,"mi":1}},{"type":"Feature","geometry":{"type":"Point","coordinates":[22.94408,39.361067]},"properties":{"lines":"1, 2, 3, 4, 5, 7, 9, 11, 15, 49","color":"#0059a9","mode":"bus","arr":["1","2","3","4","5","7","9","11","15","49"],"angle":30.6}},{"type":"Feature","geometry":{"type":"Point","coordinates":[22.94886,39.35882]},"properties":{"lines":"1, 5, 11","color":"#0059a9","mode":"bus","arr":["1","5","11"],"angle":31.4,"mi":1}},{"type":"Feature","geometry":{"type":"Point","coordinates":[22.947305,39.35956]},"properties":{"lines":"1, 5, 11","color":"#0059a9","mode":"bus","arr":["1","5","11"],"angle":31.8,"extra":1,"ei":0}},{"type":"Feature","geometry":{"type":"Point","coordinates":[22.963396,39.351221]},"properties":{"lines":"1","color":"#0059a9","mode":"bus","arr":["1"],"angle":-61.3}},{"type":"Feature","geometry":{"type":"Point","coordinates":[22.933279,39.361503]},"properties":{"lines":"2, 4, 5, 7, 9, 11, 49","color":"#0059a9","mode":"bus","arr":["2","4","5","7","9","11","49"],"angle":-32.6,"mi":2}},{"type":"Feature","geometry":{"type":"Point","coordinates":[22.940169,39.362172]},"properties":{"lines":"2, 3, 4, 5, 7, 9, 11, 49","color":"#0059a9","mode":"bus","arr":["2","3","4","5","7","9","11","49"],"angle":0.3,"side":-1,"mi":1}},{"type":"Feature","geometry":{"type":"Point","coordinates":[22.935636,39.362349]},"properties":{"lines":"2, 3, 4, 5, 7, 9, 11, 15, 49","color":"#0059a9","mode":"bus","arr":["2","3","4","5","7","9","11","15","49"],"angle":-22.3,"mi":1}},{"type":"Feature","geometry":{"type":"Point","coordinates":[22.940165,39.362306]},"properties":{"lines":"2, 3, 4, 5, 7, 9, 11, 15, 49","color":"#0059a9","mode":"bus","arr":["2","3","4","5","7","9","11","15","49"],"angle":-0.2,"mi":2}},{"type":"Feature","geometry":{"type":"Point","coordinates":[22.934075,39.361866]},"properties":{"lines":"2, 3, 4, 5, 7, 9, 11, 15, 49","color":"#0059a9","mode":"bus","arr":["2","3","4","5","7","9","11","15","49"],"angle":-8.2,"extra":1,"ei":0}},{"type":"Feature","geometry":{"type":"Point","coordinates":[22.93781,39.362279]},"properties":{"lines":"2, 3, 4, 5, 7, 9, 11, 49","color":"#0059a9","mode":"bus","arr":["2","3","4","5","7","9","11","49"],"angle":20.2,"side":-1}},{"type":"Feature","geometry":{"type":"Point","coordinates":[22.949017,39.362995]},"properties":{"lines":"2, 3, 4, 7, 9, 15, 49","color":"#0059a9","mode":"bus","arr":["2","3","4","7","9","15","49"],"angle":-54.1}},{"type":"Feature","geometry":{"type":"Point","coordinates":[22.946986,39.360826]},"properties":{"lines":"2, 3, 4, 7, 9, 15, 49","color":"#0059a9","mode":"bus","arr":["2","3","4","7","9","15","49"],"angle":-54.1,"extra":1,"ei":0}},{"type":"Feature","geometry":{"type":"Point","coordinates":[22.951284,39.365414]},"properties":{"lines":"2, 3, 4, 7, 9, 15, 49","color":"#0059a9","mode":"bus","arr":["2","3","4","7","9","15","49"],"angle":-54.1,"extra":1,"ei":1}},{"type":"Feature","geometry":{"type":"Point","coordinates":[22.951277,39.366302]},"properties":{"lines":"2, 3, 7, 9, 11","color":"#0059a9","mode":"bus","arr":["2","3","7","9","11"],"angle":35.5}},{"type":"Feature","geometry":{"type":"Point","coordinates":[22.949014,39.367571]},"properties":{"lines":"2, 9, 11","color":"#0059a9","mode":"bus","arr":["2","9","11"],"angle":36}},{"type":"Feature","geometry":{"type":"Point","coordinates":[22.947757,39.36827]},"properties":{"lines":"2, 9, 11","color":"#0059a9","mode":"bus","arr":["2","9","11"],"angle":35.4,"extra":1,"ei":0}},{"type":"Feature","geometry":{"type":"Point","coordinates":[22.950206,39.366797]},"properties":{"lines":"2, 9, 11","color":"#0059a9","mode":"bus","arr":["2","9","11"],"angle":35.5,"extra":1,"ei":0,"side":-1}},{"type":"Feature","geometry":{"type":"Point","coordinates":[22.945523,39.369499]},"properties":{"lines":"2, 11","color":"#0059a9","mode":"bus","arr":["2","11"],"angle":35.2,"mi":2}},{"type":"Feature","geometry":{"type":"Point","coordinates":[22.946807,39.368701]},"properties":{"lines":"2, 11","color":"#0059a9","mode":"bus","arr":["2","11"],"angle":35.4,"extra":1,"ei":0,"side":-1}},{"type":"Feature","geometry":{"type":"Point","coordinates":[22.941928,39.369678]},"properties":{"lines":"2, 11","color":"#0059a9","mode":"bus","arr":["2","11"],"angle":-26.5,"side":-1}},{"type":"Feature","geometry":{"type":"Point","coordinates":[22.940471,39.369181]},"properties":{"lines":"2, 11","color":"#0059a9","mode":"bus","arr":["2","11"],"angle":-26.8,"extra":1,"ei":0}},{"type":"Feature","geometry":{"type":"Point","coordinates":[22.943323,39.370216]},"properties":{"lines":"2, 11","color":"#0059a9","mode":"bus","arr":["2","11"],"angle":-26.4,"extra":1,"ei":0,"side":-1}},{"type":"Feature","geometry":{"type":"Point","coordinates":[22.939757,39.370282]},"properties":{"lines":"2, 11","color":"#0059a9","mode":"bus","arr":["2","11"],"angle":81.1,"mi":1}},{"type":"Feature","geometry":{"type":"Point","coordinates":[22.939057,39.373846]},"properties":{"lines":"2, 11","color":"#0059a9","mode":"bus","arr":["2","11"],"angle":81.6,"mi":3}},{"type":"Feature","geometry":{"type":"Point","coordinates":[22.939303,39.372572]},"properties":{"lines":"2, 11","color":"#0059a9","mode":"bus","arr":["2","11"],"angle":81.4,"extra":1,"ei":0}},{"type":"Feature","geometry":{"type":"Point","coordinates":[22.940005,39.376937]},"properties":{"lines":"2","color":"#0059a9","mode":"bus","arr":["2"],"angle":-41,"mi":6}},{"type":"Feature","geometry":{"type":"Point","coordinates":[22.94049,39.379135]},"properties":{"lines":"2, 9","color":"#0059a9","mode":"bus","arr":["2","9"],"angle":66.1,"mi":3}},{"type":"Feature","geometry":{"type":"Point","coordinates":[22.939906,39.380421]},"properties":{"lines":"2, 9","color":"#0059a9","mode":"bus","arr":["2","9"],"angle":72.4,"extra":1,"ei":0}},{"type":"Feature","geometry":{"type":"Point","coordinates":[22.940001,39.382619]},"properties":{"lines":"2, 9","color":"#0059a9","mode":"bus","arr":["2","9"],"angle":-90,"mi":1}},{"type":"Feature","geometry":{"type":"Point","coordinates":[22.936856,39.383095]},"properties":{"lines":"2, 9","color":"#0059a9","mode":"bus","arr":["2","9"],"angle":-35.3}},{"type":"Feature","geometry":{"type":"Point","coordinates":[22.93539,39.382261]},"properties":{"lines":"2, 9","color":"#0059a9","mode":"bus","arr":["2","9"],"angle":-37.3,"extra":1,"ei":0}},{"type":"Feature","geometry":{"type":"Point","coordinates":[22.933858,39.382574]},"properties":{"lines":"2, 9","color":"#0059a9","mode":"bus","arr":["2","9"],"angle":61.8,"mi":2}},{"type":"Feature","geometry":{"type":"Point","coordinates":[22.93594,39.384989]},"properties":{"lines":"2","color":"#0059a9","mode":"bus","arr":["2"],"angle":-37.4,"mi":5}},{"type":"Feature","geometry":{"type":"Point","coordinates":[22.934243,39.384001]},"properties":{"lines":"2","color":"#0059a9","mode":"bus","arr":["2"],"angle":-36.3,"extra":1,"ei":0}},{"type":"Feature","geometry":{"type":"Point","coordinates":[22.938298,39.386052]},"properties":{"lines":"2","color":"#0059a9","mode":"bus","arr":["2"],"angle":-16.1,"extra":1,"ei":1}},{"type":"Feature","geometry":{"type":"Point","coordinates":[22.938858,39.386177]},"properties":{"lines":"2","color":"#0059a9","mode":"bus","arr":["2"],"angle":-1.9}},{"type":"Feature","geometry":{"type":"Point","coordinates":[22.938418,39.387481]},"properties":{"lines":"2","color":"#0059a9","mode":"bus","arr":["2"],"angle":76.4,"extra":1,"ei":0,"side":-1}},{"type":"Feature","geometry":{"type":"Point","coordinates":[22.938784,39.387676]},"properties":{"lines":"2","color":"#0059a9","mode":"bus","arr":["2"],"angle":13.6,"side":-1,"mi":4}},{"type":"Feature","geometry":{"type":"Point","coordinates":[22.9402,39.386726]},"properties":{"lines":"2","color":"#0059a9","mode":"bus","arr":["2"],"angle":22.2,"mi":1}},{"type":"Feature","geometry":{"type":"Point","coordinates":[22.942701,39.38625]},"properties":{"lines":"2","color":"#0059a9","mode":"bus","arr":["2"],"angle":-79.6,"mi":3}},{"type":"Feature","geometry":{"type":"Point","coordinates":[22.942322,39.386597]},"properties":{"lines":"2","color":"#0059a9","mode":"bus","arr":["2"],"angle":7.4,"mi":2}},{"type":"Feature","geometry":{"type":"Point","coordinates":[22.948088,39.36384]},"properties":{"lines":"2, 3, 4, 7, 9, 15, 49","color":"#0059a9","mode":"bus","arr":["2","3","4","7","9","15","49"],"angle":-53.6,"mi":1}},{"type":"Feature","geometry":{"type":"Point","coordinates":[22.949942,39.365785]},"properties":{"lines":"2, 3, 4, 7, 9, 15, 49","color":"#0059a9","mode":"bus","arr":["2","3","4","7","9","15","49"],"angle":-53.6,"extra":1,"ei":0}},{"type":"Feature","geometry":{"type":"Point","coordinates":[22.947075,39.362727]},"properties":{"lines":"2, 3, 4, 7, 9, 15, 49","color":"#0059a9","mode":"bus","arr":["2","3","4","7","9","15","49"],"angle":-56.3,"extra":1,"ei":1}},{"type":"Feature","geometry":{"type":"Point","coordinates":[22.94578,39.361126]},"properties":{"lines":"2, 3, 4, 7, 9, 15, 49","color":"#0059a9","mode":"bus","arr":["2","3","4","7","9","15","49"],"angle":-58.1,"extra":1,"ei":2}},{"type":"Feature","geometry":{"type":"Point","coordinates":[22.937849,39.362339]},"properties":{"lines":"2, 3, 4, 5, 7, 9, 11, 15, 49","color":"#0059a9","mode":"bus","arr":["2","3","4","5","7","9","11","15","49"],"angle":1.6}},{"type":"Feature","geometry":{"type":"Point","coordinates":[22.934104,39.361493]},"properties":{"lines":"2, 4, 5, 7, 9, 11, 49","color":"#0059a9","mode":"bus","arr":["2","4","5","7","9","11","49"],"angle":57.8}},{"type":"Feature","geometry":{"type":"Point","coordinates":[22.933945,39.360998]},"properties":{"lines":"2, 4, 5, 7, 9, 11, 49","color":"#0059a9","mode":"bus","arr":["2","4","5","7","9","11","49"],"angle":-27.9,"mi":1}},{"type":"Feature","geometry":{"type":"Point","coordinates":[22.933342,39.36075]},"properties":{"lines":"2, 4, 5, 7, 9, 49","color":"#0059a9","mode":"bus","arr":["2","4","5","7","9","49"],"angle":-27.9}},{"type":"Feature","geometry":{"type":"Point","coordinates":[22.932594,39.360999]},"properties":{"lines":"2, 4, 5, 9, 49","color":"#0059a9","mode":"bus","arr":["2","4","5","9","49"],"angle":69.5,"side":-1}},{"type":"Feature","geometry":{"type":"Point","coordinates":[22.962084,39.350858]},"properties":{"lines":"3, 15","color":"#0059a9","mode":"bus","arr":["3","15"],"angle":13.3,"mi":1}},{"type":"Feature","geometry":{"type":"Point","coordinates":[22.964616,39.35104]},"properties":{"lines":"3, 5, 11, 15","color":"#0059a9","mode":"bus","arr":["3","5","11","15"],"angle":16.8}},{"type":"Feature","geometry":{"type":"Point","coordinates":[22.965328,39.352882]},"properties":{"lines":"3, 11, 15","color":"#0059a9","mode":"bus","arr":["3","11","15"],"angle":-74.9,"mi":2}},{"type":"Feature","geometry":{"type":"Point","coordinates":[22.965412,39.351481]},"properties":{"lines":"3, 11, 15","color":"#0059a9","mode":"bus","arr":["3","11","15"],"angle":77.6,"extra":1,"ei":0}},{"type":"Feature","geometry":{"type":"Point","coordinates":[22.966059,39.354437]},"properties":{"lines":"3, 11, 15","color":"#0059a9","mode":"bus","arr":["3","11","15"],"angle":59.3}},{"type":"Feature","geometry":{"type":"Point","coordinates":[22.966335,39.355385]},"properties":{"lines":"3, 11, 15","color":"#0059a9","mode":"bus","arr":["3","11","15"],"angle":-50.9,"mi":1}},{"type":"Feature","geometry":{"type":"Point","coordinates":[22.964798,39.358239]},"properties":{"lines":"3, 11","color":"#0059a9","mode":"bus","arr":["3","11"],"angle":56.8}},{"type":"Feature","geometry":{"type":"Point","coordinates":[22.965972,39.356899]},"properties":{"lines":"3, 11","color":"#0059a9","mode":"bus","arr":["3","11"],"angle":56,"extra":1,"ei":0}},{"type":"Feature","geometry":{"type":"Point","coordinates":[22.963272,39.360047]},"properties":{"lines":"3, 11","color":"#0059a9","mode":"bus","arr":["3","11"],"angle":51.8,"extra":1,"ei":1}},{"type":"Feature","geometry":{"type":"Point","coordinates":[22.962364,39.360322]},"properties":{"lines":"3, 11","color":"#0059a9","mode":"bus","arr":["3","11"],"angle":48.5,"side":-1,"mi":1}},{"type":"Feature","geometry":{"type":"Point","coordinates":[22.953693,39.364957]},"properties":{"lines":"3, 11","color":"#0059a9","mode":"bus","arr":["3","11"],"angle":35.6,"extra":1,"ei":0}},{"type":"Feature","geometry":{"type":"Point","coordinates":[22.955648,39.363825]},"properties":{"lines":"3, 11","color":"#0059a9","mode":"bus","arr":["3","11"],"angle":38.4,"extra":1,"ei":1}},{"type":"Feature","geometry":{"type":"Point","coordinates":[22.957581,39.362672]},"properties":{"lines":"3, 11","color":"#0059a9","mode":"bus","arr":["3","11"],"angle":33.1,"extra":1,"ei":2}},{"type":"Feature","geometry":{"type":"Point","coordinates":[22.95965,39.361669]},"properties":{"lines":"3, 11","color":"#0059a9","mode":"bus","arr":["3","11"],"angle":32.7,"extra":1,"ei":3}},{"type":"Feature","geometry":{"type":"Point","coordinates":[22.952325,39.365613]},"properties":{"lines":"3, 7, 11","color":"#0059a9","mode":"bus","arr":["3","7","11"],"angle":35.7,"side":-1}},{"type":"Feature","geometry":{"type":"Point","coordinates":[22.932487,39.362472]},"properties":{"lines":"3, 4, 11, 15","color":"#0059a9","mode":"bus","arr":["3","4","11","15"],"angle":29.3}},{"type":"Feature","geometry":{"type":"Point","coordinates":[22.927138,39.364857]},"properties":{"lines":"3, 11","color":"#0059a9","mode":"bus","arr":["3","11"],"angle":29.9,"mi":2}},{"type":"Feature","geometry":{"type":"Point","coordinates":[22.930014,39.363577]},"properties":{"lines":"3, 11","color":"#0059a9","mode":"bus","arr":["3","11"],"angle":30.2,"extra":1,"ei":0}},{"type":"Feature","geometry":{"type":"Point","coordinates":[22.92578,39.365461]},"properties":{"lines":"3, 11","color":"#0059a9","mode":"bus","arr":["3","11"],"angle":30.3,"extra":1,"ei":1}},{"type":"Feature","geometry":{"type":"Point","coordinates":[22.923732,39.36649]},"properties":{"lines":"3, 11","color":"#0059a9","mode":"bus","arr":["3","11"],"angle":35.8,"extra":1,"ei":2}},{"type":"Feature","geometry":{"type":"Point","coordinates":[22.928379,39.364173]},"properties":{"lines":"3, 11","color":"#0059a9","mode":"bus","arr":["3","11"],"angle":30.1,"extra":1,"ei":0,"side":-1}},{"type":"Feature","geometry":{"type":"Point","coordinates":[22.923536,39.367083]},"properties":{"lines":"3, 11","color":"#0059a9","mode":"bus","arr":["3","11"],"angle":33.3,"mi":1}},{"type":"Feature","geometry":{"type":"Point","coordinates":[22.92588,39.368242]},"properties":{"lines":"3, 11","color":"#0059a9","mode":"bus","arr":["3","11"],"angle":-63.6}},{"type":"Feature","geometry":{"type":"Point","coordinates":[22.924727,39.36739]},"properties":{"lines":"3, 11","color":"#0059a9","mode":"bus","arr":["3","11"],"angle":-20.8,"extra":1,"ei":0}},{"type":"Feature","geometry":{"type":"Point","coordinates":[22.924847,39.370533]},"properties":{"lines":"3","color":"#0059a9","mode":"bus","arr":["3"],"angle":12.8,"mi":1}},{"type":"Feature","geometry":{"type":"Point","coordinates":[22.92247,39.371464]},"properties":{"lines":"3","color":"#0059a9","mode":"bus","arr":["3"],"angle":-82.2}},{"type":"Feature","geometry":{"type":"Point","coordinates":[22.919997,39.373937]},"properties":{"lines":"3","color":"#0059a9","mode":"bus","arr":["3"],"angle":-22.2,"mi":2}},{"type":"Feature","geometry":{"type":"Point","coordinates":[22.930438,39.363242]},"properties":{"lines":"3, 4, 11","color":"#0059a9","mode":"bus","arr":["3","4","11"],"angle":28.8,"side":-1}},{"type":"Feature","geometry":{"type":"Point","coordinates":[22.931558,39.36278]},"properties":{"lines":"3, 4, 11","color":"#0059a9","mode":"bus","arr":["3","4","11"],"angle":27.1,"side":-1,"mi":1}},{"type":"Feature","geometry":{"type":"Point","coordinates":[22.932731,39.362276]},"properties":{"lines":"3, 4","color":"#0059a9","mode":"bus","arr":["3","4"],"angle":28.8,"side":-1}},{"type":"Feature","geometry":{"type":"Point","coordinates":[22.961858,39.351874]},"properties":{"lines":"3, 15","color":"#0059a9","mode":"bus","arr":["3","15"],"angle":-47.4}},{"type":"Feature","geometry":{"type":"Point","coordinates":[22.926077,39.35739]},"properties":{"lines":"4, 8","color":"#0059a9","mode":"bus","arr":["4","8"],"angle":45.6}},{"type":"Feature","geometry":{"type":"Point","coordinates":[22.924887,39.358357]},"properties":{"lines":"4","color":"#0059a9","mode":"bus","arr":["4"],"angle":46.6,"mi":2}},{"type":"Feature","geometry":{"type":"Point","coordinates":[22.927312,39.360996]},"properties":{"lines":"4","color":"#0059a9","mode":"bus","arr":["4"],"angle":-45.5}},{"type":"Feature","geometry":{"type":"Point","coordinates":[22.924945,39.359662]},"properties":{"lines":"4","color":"#0059a9","mode":"bus","arr":["4"],"angle":-35.3,"extra":1,"ei":0}},{"type":"Feature","geometry":{"type":"Point","coordinates":[22.928672,39.362071]},"properties":{"lines":"4","color":"#0059a9","mode":"bus","arr":["4"],"angle":-49.2,"extra":1,"ei":1}},{"type":"Feature","geometry":{"type":"Point","coordinates":[22.932077,39.362045]},"properties":{"lines":"4, 11","color":"#0059a9","mode":"bus","arr":["4","11"],"angle":68.9}},{"type":"Feature","geometry":{"type":"Point","coordinates":[22.953595,39.367847]},"properties":{"lines":"4, 7, 15, 49","color":"#0059a9","mode":"bus","arr":["4","7","15","49"],"angle":-53.2}},{"type":"Feature","geometry":{"type":"Point","coordinates":[22.952554,39.366756]},"properties":{"lines":"4, 7, 15, 49","color":"#0059a9","mode":"bus","arr":["4","7","15","49"],"angle":-53.6,"extra":1,"ei":0}},{"type":"Feature","geometry":{"type":"Point","coordinates":[22.954761,39.369831]},"properties":{"lines":"4, 7, 15, 49","color":"#0059a9","mode":"bus","arr":["4","7","15","49"],"angle":27.4,"mi":2}},{"type":"Feature","geometry":{"type":"Point","coordinates":[22.956106,39.372341]},"properties":{"lines":"4, 7, 49","color":"#0059a9","mode":"bus","arr":["4","7","49"],"angle":-54}},{"type":"Feature","geometry":{"type":"Point","coordinates":[22.954804,39.370953]},"properties":{"lines":"4, 7, 49","color":"#0059a9","mode":"bus","arr":["4","7","49"],"angle":-54,"extra":1,"ei":0}},{"type":"Feature","geometry":{"type":"Point","coordinates":[22.957674,39.37401]},"properties":{"lines":"4, 7, 49","color":"#0059a9","mode":"bus","arr":["4","7","49"],"angle":-54.1,"extra":1,"ei":1}},{"type":"Feature","geometry":{"type":"Point","coordinates":[22.959851,39.37629]},"properties":{"lines":"4, 7, 49","color":"#0059a9","mode":"bus","arr":["4","7","49"],"angle":-47.2,"mi":1}},{"type":"Feature","geometry":{"type":"Point","coordinates":[22.958855,39.375251]},"properties":{"lines":"4, 7, 49","color":"#0059a9","mode":"bus","arr":["4","7","49"],"angle":-53.7,"extra":1,"ei":0}},{"type":"Feature","geometry":{"type":"Point","coordinates":[22.9669,39.380553]},"properties":{"lines":"4, 7","color":"#0059a9","mode":"bus","arr":["4","7"],"angle":-20,"mi":1}},{"type":"Feature","geometry":{"type":"Point","coordinates":[22.963179,39.378137]},"properties":{"lines":"4, 7","color":"#0059a9","mode":"bus","arr":["4","7"],"angle":-46.8,"extra":1,"ei":0}},{"type":"Feature","geometry":{"type":"Point","coordinates":[22.96479,39.379557]},"properties":{"lines":"4, 7","color":"#0059a9","mode":"bus","arr":["4","7"],"angle":-47.6,"extra":1,"ei":1}},{"type":"Feature","geometry":{"type":"Point","coordinates":[22.969049,39.381135]},"properties":{"lines":"4, 7","color":"#0059a9","mode":"bus","arr":["4","7"],"angle":10.4,"extra":1,"ei":2,"side":-1}},{"type":"Feature","geometry":{"type":"Point","coordinates":[22.971072,39.381065]},"properties":{"lines":"4, 7","color":"#0059a9","mode":"bus","arr":["4","7"],"angle":-44.8,"extra":1,"ei":3}},{"type":"Feature","geometry":{"type":"Point","coordinates":[22.970998,39.382937]},"properties":{"lines":"4","color":"#0059a9","mode":"bus","arr":["4"],"angle":-51}},{"type":"Feature","geometry":{"type":"Point","coordinates":[22.969898,39.382051]},"properties":{"lines":"4","color":"#0059a9","mode":"bus","arr":["4"],"angle":-40.8,"extra":1,"ei":0}},{"type":"Feature","geometry":{"type":"Point","coordinates":[22.972354,39.384461]},"properties":{"lines":"4","color":"#0059a9","mode":"bus","arr":["4"],"angle":-16.2,"mi":1}},{"type":"Feature","geometry":{"type":"Point","coordinates":[22.997387,39.381802]},"properties":{"lines":"4","color":"#0059a9","mode":"bus","arr":["4"],"angle":-43,"mi":3}},{"type":"Feature","geometry":{"type":"Point","coordinates":[22.997234,39.383901]},"properties":{"lines":"4","color":"#0059a9","mode":"bus","arr":["4"],"angle":-41.4,"extra":1,"ei":0}},{"type":"Feature","geometry":{"type":"Point","coordinates":[22.99446,39.382003]},"properties":{"lines":"4","color":"#0059a9","mode":"bus","arr":["4"],"angle":33.3,"extra":1,"ei":1}},{"type":"Feature","geometry":{"type":"Point","coordinates":[22.986174,39.37987]},"properties":{"lines":"4","color":"#0059a9","mode":"bus","arr":["4"],"angle":87.1}},{"type":"Feature","geometry":{"type":"Point","coordinates":[22.991833,39.382607]},"properties":{"lines":"4","color":"#0059a9","mode":"bus","arr":["4"],"angle":-36.6,"extra":1,"ei":0}},{"type":"Feature","geometry":{"type":"Point","coordinates":[22.989683,39.38177]},"properties":{"lines":"4","color":"#0059a9","mode":"bus","arr":["4"],"angle":32.1,"extra":1,"ei":1}},{"type":"Feature","geometry":{"type":"Point","coordinates":[22.987523,39.38138]},"properties":{"lines":"4","color":"#0059a9","mode":"bus","arr":["4"],"angle":-7.7,"extra":1,"ei":2}},{"type":"Feature","geometry":{"type":"Point","coordinates":[22.987281,39.377768]},"properties":{"lines":"4","color":"#0059a9","mode":"bus","arr":["4"],"angle":30.5,"extra":1,"ei":3}},{"type":"Feature","geometry":{"type":"Point","coordinates":[22.984442,39.38053]},"properties":{"lines":"4","color":"#0059a9","mode":"bus","arr":["4"],"angle":28.8,"extra":1,"ei":4}},{"type":"Feature","geometry":{"type":"Point","coordinates":[22.982551,39.381713]},"properties":{"lines":"4","color":"#0059a9","mode":"bus","arr":["4"],"angle":75.4,"extra":1,"ei":5}},{"type":"Feature","geometry":{"type":"Point","coordinates":[22.984111,39.382567]},"properties":{"lines":"4","color":"#0059a9","mode":"bus","arr":["4"],"angle":34.8,"extra":1,"ei":6}},{"type":"Feature","geometry":{"type":"Point","coordinates":[22.98266,39.383763]},"properties":{"lines":"4","color":"#0059a9","mode":"bus","arr":["4"],"angle":-37,"extra":1,"ei":7}},{"type":"Feature","geometry":{"type":"Point","coordinates":[22.986988,39.386596]},"properties":{"lines":"4","color":"#0059a9","mode":"bus","arr":["4"],"angle":-37.5,"mi":1}},{"type":"Feature","geometry":{"type":"Point","coordinates":[22.984451,39.381158]},"properties":{"lines":"4","color":"#0059a9","mode":"bus","arr":["4"],"angle":-89.5,"extra":1,"ei":0}},{"type":"Feature","geometry":{"type":"Point","coordinates":[22.986024,39.382361]},"properties":{"lines":"4","color":"#0059a9","mode":"bus","arr":["4"],"angle":54.8,"extra":1,"ei":1}},{"type":"Feature","geometry":{"type":"Point","coordinates":[22.985683,39.383565]},"properties":{"lines":"4","color":"#0059a9","mode":"bus","arr":["4"],"angle":89.9,"extra":1,"ei":2}},{"type":"Feature","geometry":{"type":"Point","coordinates":[22.985076,39.385166]},"properties":{"lines":"4","color":"#0059a9","mode":"bus","arr":["4"],"angle":-52.5,"extra":1,"ei":3}},{"type":"Feature","geometry":{"type":"Point","coordinates":[22.988482,39.387712]},"properties":{"lines":"4","color":"#0059a9","mode":"bus","arr":["4"],"angle":-70.6,"extra":1,"ei":4}},{"type":"Feature","geometry":{"type":"Point","coordinates":[22.986144,39.388025]},"properties":{"lines":"4","color":"#0059a9","mode":"bus","arr":["4"],"angle":-51.3,"extra":1,"ei":5}},{"type":"Feature","geometry":{"type":"Point","coordinates":[22.984357,39.388564]},"properties":{"lines":"4","color":"#0059a9","mode":"bus","arr":["4"],"angle":20.7,"extra":1,"ei":6}},{"type":"Feature","geometry":{"type":"Point","coordinates":[22.982073,39.378818]},"properties":{"lines":"4","color":"#0059a9","mode":"bus","arr":["4"],"angle":81.8,"mi":2}},{"type":"Feature","geometry":{"type":"Point","coordinates":[22.98093,39.381026]},"properties":{"lines":"4","color":"#0059a9","mode":"bus","arr":["4"],"angle":66.2,"extra":1,"ei":0}},{"type":"Feature","geometry":{"type":"Point","coordinates":[22.983453,39.377367]},"properties":{"lines":"4","color":"#0059a9","mode":"bus","arr":["4"],"angle":-82.1,"extra":1,"ei":1}},{"type":"Feature","geometry":{"type":"Point","coordinates":[22.980603,39.379005]},"properties":{"lines":"4, 7","color":"#0059a9","mode":"bus","arr":["4","7"],"angle":49.4,"mi":2}},{"type":"Feature","geometry":{"type":"Point","coordinates":[22.983079,39.377308]},"properties":{"lines":"4, 7","color":"#0059a9","mode":"bus","arr":["4","7"],"angle":50.4,"extra":1,"ei":0}},{"type":"Feature","geometry":{"type":"Point","coordinates":[22.980981,39.37673]},"properties":{"lines":"4, 7","color":"#0059a9","mode":"bus","arr":["4","7"],"angle":36.6,"extra":1,"ei":1}},{"type":"Feature","geometry":{"type":"Point","coordinates":[22.978166,39.379653]},"properties":{"lines":"4, 7","color":"#0059a9","mode":"bus","arr":["4","7"],"angle":-84.3,"extra":1,"ei":2}},{"type":"Feature","geometry":{"type":"Point","coordinates":[22.976315,39.38028]},"properties":{"lines":"4, 7","color":"#0059a9","mode":"bus","arr":["4","7"],"angle":52.6,"extra":1,"ei":3}},{"type":"Feature","geometry":{"type":"Point","coordinates":[22.973142,39.38028]},"properties":{"lines":"4, 7","color":"#0059a9","mode":"bus","arr":["4","7"],"angle":89.2}},{"type":"Feature","geometry":{"type":"Point","coordinates":[22.973715,39.381372]},"properties":{"lines":"4, 7","color":"#0059a9","mode":"bus","arr":["4","7"],"angle":-29.8,"extra":1,"ei":0}},{"type":"Feature","geometry":{"type":"Point","coordinates":[22.984373,39.375994]},"properties":{"lines":"7","color":"#0059a9","mode":"bus","arr":["7"],"angle":64.3,"mi":8}},{"type":"Feature","geometry":{"type":"Point","coordinates":[22.932909,39.36098]},"properties":{"lines":"7","color":"#0059a9","mode":"bus","arr":["7"],"angle":55}},{"type":"Feature","geometry":{"type":"Point","coordinates":[22.952401,39.368401]},"properties":{"lines":"4, 7, 15, 49","color":"#0059a9","mode":"bus","arr":["4","7","15","49"],"angle":-54.4,"mi":1}},{"type":"Feature","geometry":{"type":"Point","coordinates":[22.953364,39.369428]},"properties":{"lines":"4, 7, 15, 49","color":"#0059a9","mode":"bus","arr":["4","7","15","49"],"angle":-53.5,"extra":1,"ei":0}},{"type":"Feature","geometry":{"type":"Point","coordinates":[22.929949,39.361302]},"properties":{"lines":"4","color":"#0059a9","mode":"bus","arr":["4"],"angle":-62.1,"mi":1}},{"type":"Feature","geometry":{"type":"Point","coordinates":[22.927843,39.358249]},"properties":{"lines":"4, 8","color":"#0059a9","mode":"bus","arr":["4","8"],"angle":-61.7,"mi":1}},{"type":"Feature","geometry":{"type":"Point","coordinates":[22.927127,39.357215]},"properties":{"lines":"4, 8","color":"#0059a9","mode":"bus","arr":["4","8"],"angle":-62.4,"extra":1,"ei":0}},{"type":"Feature","geometry":{"type":"Point","coordinates":[23.055267,39.331026]},"properties":{"lines":"5","color":"#0059a9","mode":"bus","arr":["5"],"angle":33,"mi":3}},{"type":"Feature","geometry":{"type":"Point","coordinates":[23.057201,39.329279]},"properties":{"lines":"5","color":"#0059a9","mode":"bus","arr":["5"],"angle":40.3,"extra":1,"ei":0}},{"type":"Feature","geometry":{"type":"Point","coordinates":[23.0561,39.327623]},"properties":{"lines":"5","color":"#0059a9","mode":"bus","arr":["5"],"angle":13.1,"mi":1}},{"type":"Feature","geometry":{"type":"Point","coordinates":[23.054725,39.328393]},"properties":{"lines":"5","color":"#0059a9","mode":"bus","arr":["5"],"angle":41.4,"extra":1,"ei":0}},{"type":"Feature","geometry":{"type":"Point","coordinates":[23.054051,39.326625]},"properties":{"lines":"5","color":"#0059a9","mode":"bus","arr":["5"],"angle":-70.6}},{"type":"Feature","geometry":{"type":"Point","coordinates":[22.978105,39.349052]},"properties":{"lines":"5","color":"#0059a9","mode":"bus","arr":["5"],"angle":-14}},{"type":"Feature","geometry":{"type":"Point","coordinates":[23.048589,39.327887]},"properties":{"lines":"5","color":"#0059a9","mode":"bus","arr":["5"],"angle":18.9,"mi":2}},{"type":"Feature","geometry":{"type":"Point","coordinates":[23.030445,39.332494]},"properties":{"lines":"5","color":"#0059a9","mode":"bus","arr":["5"],"angle":-30.2}},{"type":"Feature","geometry":{"type":"Point","coordinates":[23.036963,39.330909]},"properties":{"lines":"5","color":"#0059a9","mode":"bus","arr":["5"],"angle":46,"mi":1}},{"type":"Feature","geometry":{"type":"Point","coordinates":[22.9926,39.351315]},"properties":{"lines":"5","color":"#0059a9","mode":"bus","arr":["5"],"angle":-6.1,"mi":5}},{"type":"Feature","geometry":{"type":"Point","coordinates":[23.024728,39.332704]},"properties":{"lines":"5","color":"#0059a9","mode":"bus","arr":["5"],"angle":18.8,"extra":1,"ei":0}},{"type":"Feature","geometry":{"type":"Point","coordinates":[23.027132,39.332494]},"properties":{"lines":"5","color":"#0059a9","mode":"bus","arr":["5"],"angle":-2.5,"extra":1,"ei":1}},{"type":"Feature","geometry":{"type":"Point","coordinates":[23.033785,39.332222]},"properties":{"lines":"5","color":"#0059a9","mode":"bus","arr":["5"],"angle":36,"extra":1,"ei":2}},{"type":"Feature","geometry":{"type":"Point","coordinates":[22.966728,39.350163]},"properties":{"lines":"5","color":"#0059a9","mode":"bus","arr":["5"],"angle":50,"extra":1,"ei":0}},{"type":"Feature","geometry":{"type":"Point","coordinates":[22.968623,39.349034]},"properties":{"lines":"5","color":"#0059a9","mode":"bus","arr":["5"],"angle":40.1,"extra":1,"ei":1}},{"type":"Feature","geometry":{"type":"Point","coordinates":[22.970676,39.348097]},"properties":{"lines":"5","color":"#0059a9","mode":"bus","arr":["5"],"angle":-4,"extra":1,"ei":2}},{"type":"Feature","geometry":{"type":"Point","coordinates":[22.972988,39.347768]},"properties":{"lines":"5","color":"#0059a9","mode":"bus","arr":["5"],"angle":-1.4,"extra":1,"ei":3}},{"type":"Feature","geometry":{"type":"Point","coordinates":[22.975389,39.347967]},"properties":{"lines":"5","color":"#0059a9","mode":"bus","arr":["5"],"angle":1.9,"extra":1,"ei":4}},{"type":"Feature","geometry":{"type":"Point","coordinates":[22.981063,39.350628]},"properties":{"lines":"5","color":"#0059a9","mode":"bus","arr":["5"],"angle":-16.5,"extra":1,"ei":5}},{"type":"Feature","geometry":{"type":"Point","coordinates":[22.983405,39.351164]},"properties":{"lines":"5","color":"#0059a9","mode":"bus","arr":["5"],"angle":-16.1,"extra":1,"ei":6}},{"type":"Feature","geometry":{"type":"Point","coordinates":[22.985805,39.351508]},"properties":{"lines":"5","color":"#0059a9","mode":"bus","arr":["5"],"angle":-9.1,"extra":1,"ei":7}},{"type":"Feature","geometry":{"type":"Point","coordinates":[22.988192,39.351446]},"properties":{"lines":"5","color":"#0059a9","mode":"bus","arr":["5"],"angle":12,"extra":1,"ei":8}},{"type":"Feature","geometry":{"type":"Point","coordinates":[22.990626,39.351519]},"properties":{"lines":"5","color":"#0059a9","mode":"bus","arr":["5"],"angle":-2.8,"extra":1,"ei":9}},{"type":"Feature","geometry":{"type":"Point","coordinates":[23.053743,39.324322]},"properties":{"lines":"5","color":"#0059a9","mode":"bus","arr":["5"],"angle":61.2,"extra":1,"ei":0}},{"type":"Feature","geometry":{"type":"Point","coordinates":[23.052563,39.325938]},"properties":{"lines":"5","color":"#0059a9","mode":"bus","arr":["5"],"angle":52.9,"extra":1,"ei":1}},{"type":"Feature","geometry":{"type":"Point","coordinates":[23.051213,39.327425]},"properties":{"lines":"5","color":"#0059a9","mode":"bus","arr":["5"],"angle":16.8,"extra":1,"ei":2}},{"type":"Feature","geometry":{"type":"Point","coordinates":[23.046656,39.328666]},"properties":{"lines":"5","color":"#0059a9","mode":"bus","arr":["5"],"angle":20.1,"extra":1,"ei":3}},{"type":"Feature","geometry":{"type":"Point","coordinates":[23.044348,39.329243]},"properties":{"lines":"5","color":"#0059a9","mode":"bus","arr":["5"],"angle":27.4,"extra":1,"ei":4}},{"type":"Feature","geometry":{"type":"Point","coordinates":[23.0423,39.330255]},"properties":{"lines":"5","color":"#0059a9","mode":"bus","arr":["5"],"angle":46,"extra":1,"ei":5}},{"type":"Feature","geometry":{"type":"Point","coordinates":[23.039588,39.330773]},"properties":{"lines":"5","color":"#0059a9","mode":"bus","arr":["5"],"angle":4,"extra":1,"ei":0}},{"type":"Feature","geometry":{"type":"Point","coordinates":[23.000487,39.344105]},"properties":{"lines":"5","color":"#0059a9","mode":"bus","arr":["5"],"angle":-6.8}},{"type":"Feature","geometry":{"type":"Point","coordinates":[23.011679,39.339309]},"properties":{"lines":"5","color":"#0059a9","mode":"bus","arr":["5"],"angle":48.5,"mi":3}},{"type":"Feature","geometry":{"type":"Point","coordinates":[23.022582,39.333591]},"properties":{"lines":"5","color":"#0059a9","mode":"bus","arr":["5"],"angle":34,"extra":1,"ei":0}},{"type":"Feature","geometry":{"type":"Point","coordinates":[23.02053,39.334613]},"properties":{"lines":"5","color":"#0059a9","mode":"bus","arr":["5"],"angle":28.5,"extra":1,"ei":1}},{"type":"Feature","geometry":{"type":"Point","coordinates":[23.018508,39.335633]},"properties":{"lines":"5","color":"#0059a9","mode":"bus","arr":["5"],"angle":44.6,"extra":1,"ei":2}},{"type":"Feature","geometry":{"type":"Point","coordinates":[23.016802,39.336977]},"properties":{"lines":"5","color":"#0059a9","mode":"bus","arr":["5"],"angle":35.4,"extra":1,"ei":3}},{"type":"Feature","geometry":{"type":"Point","coordinates":[23.014759,39.338011]},"properties":{"lines":"5","color":"#0059a9","mode":"bus","arr":["5"],"angle":35.8,"extra":1,"ei":4,"side":-1}},{"type":"Feature","geometry":{"type":"Point","coordinates":[23.008233,39.340011]},"properties":{"lines":"5","color":"#0059a9","mode":"bus","arr":["5"],"angle":-5.8,"extra":1,"ei":5}},{"type":"Feature","geometry":{"type":"Point","coordinates":[23.005795,39.339913]},"properties":{"lines":"5","color":"#0059a9","mode":"bus","arr":["5"],"angle":-0.3,"extra":1,"ei":6}},{"type":"Feature","geometry":{"type":"Point","coordinates":[23.003422,39.34026]},"properties":{"lines":"5","color":"#0059a9","mode":"bus","arr":["5"],"angle":37.1,"extra":1,"ei":7}},{"type":"Feature","geometry":{"type":"Point","coordinates":[23.002072,39.341788]},"properties":{"lines":"5","color":"#0059a9","mode":"bus","arr":["5"],"angle":44.1,"extra":1,"ei":8}},{"type":"Feature","geometry":{"type":"Point","coordinates":[22.999914,39.342541]},"properties":{"lines":"5","color":"#0059a9","mode":"bus","arr":["5"],"angle":49,"extra":1,"ei":9}},{"type":"Feature","geometry":{"type":"Point","coordinates":[23.014205,39.339443]},"properties":{"lines":"5","color":"#0059a9","mode":"bus","arr":["5"],"angle":63.2,"mi":4}},{"type":"Feature","geometry":{"type":"Point","coordinates":[23.006583,39.341804]},"properties":{"lines":"5","color":"#0059a9","mode":"bus","arr":["5"],"angle":-0.1,"mi":1}},{"type":"Feature","geometry":{"type":"Point","coordinates":[23.012303,39.34181]},"properties":{"lines":"5","color":"#0059a9","mode":"bus","arr":["5"],"angle":0.4,"extra":1,"ei":0}},{"type":"Feature","geometry":{"type":"Point","coordinates":[23.00986,39.341808]},"properties":{"lines":"5","color":"#0059a9","mode":"bus","arr":["5"],"angle":-0.1,"extra":1,"ei":1}},{"type":"Feature","geometry":{"type":"Point","coordinates":[23.004975,39.341803]},"properties":{"lines":"5","color":"#0059a9","mode":"bus","arr":["5"],"angle":-0.1,"extra":1,"ei":2}},{"type":"Feature","geometry":{"type":"Point","coordinates":[23.002786,39.342306]},"properties":{"lines":"5","color":"#0059a9","mode":"bus","arr":["5"],"angle":45.2,"extra":1,"ei":3}},{"type":"Feature","geometry":{"type":"Point","coordinates":[23.00174,39.343873]},"properties":{"lines":"5","color":"#0059a9","mode":"bus","arr":["5"],"angle":89.1,"extra":1,"ei":4}},{"type":"Feature","geometry":{"type":"Point","coordinates":[22.997402,39.347945]},"properties":{"lines":"5","color":"#0059a9","mode":"bus","arr":["5"],"angle":58.4,"mi":2}},{"type":"Feature","geometry":{"type":"Point","coordinates":[22.99368,39.350807]},"properties":{"lines":"5","color":"#0059a9","mode":"bus","arr":["5"],"angle":37.3,"extra":1,"ei":0}},{"type":"Feature","geometry":{"type":"Point","coordinates":[22.995226,39.349377]},"properties":{"lines":"5","color":"#0059a9","mode":"bus","arr":["5"],"angle":32.1,"extra":1,"ei":1}},{"type":"Feature","geometry":{"type":"Point","coordinates":[22.998677,39.346809]},"properties":{"lines":"5","color":"#0059a9","mode":"bus","arr":["5"],"angle":62.6,"extra":1,"ei":2}},{"type":"Feature","geometry":{"type":"Point","coordinates":[22.999066,39.344958]},"properties":{"lines":"5","color":"#0059a9","mode":"bus","arr":["5"],"angle":82.4,"extra":1,"ei":3}},{"type":"Feature","geometry":{"type":"Point","coordinates":[22.965919,39.350881]},"properties":{"lines":"5","color":"#0059a9","mode":"bus","arr":["5"],"angle":-59.7}},{"type":"Feature","geometry":{"type":"Point","coordinates":[23.051436,39.319173]},"properties":{"lines":"5","color":"#0059a9","mode":"bus","arr":["5"],"angle":-53.1,"mi":4}},{"type":"Feature","geometry":{"type":"Point","coordinates":[23.053669,39.322671]},"properties":{"lines":"5","color":"#0059a9","mode":"bus","arr":["5"],"angle":-62.9,"extra":1,"ei":0}},{"type":"Feature","geometry":{"type":"Point","coordinates":[23.052752,39.320924]},"properties":{"lines":"5","color":"#0059a9","mode":"bus","arr":["5"],"angle":-65.5,"extra":1,"ei":1}},{"type":"Feature","geometry":{"type":"Point","coordinates":[23.050329,39.317668]},"properties":{"lines":"5","color":"#0059a9","mode":"bus","arr":["5"],"angle":-63.1,"extra":1,"ei":2}},{"type":"Feature","geometry":{"type":"Point","coordinates":[23.049282,39.315962]},"properties":{"lines":"5","color":"#0059a9","mode":"bus","arr":["5"],"angle":-64.9,"extra":1,"ei":3}},{"type":"Feature","geometry":{"type":"Point","coordinates":[22.926636,39.356948]},"properties":{"lines":"6, 8","color":"#0059a9","mode":"bus","arr":["6","8"],"angle":45.9}},{"type":"Feature","geometry":{"type":"Point","coordinates":[22.924217,39.328773]},"properties":{"lines":"6","color":"#0059a9","mode":"bus","arr":["6"],"angle":-57,"mi":4}},{"type":"Feature","geometry":{"type":"Point","coordinates":[22.925198,39.348844]},"properties":{"lines":"6","color":"#0059a9","mode":"bus","arr":["6"],"angle":63.8,"mi":13}},{"type":"Feature","geometry":{"type":"Point","coordinates":[22.926239,39.355823]},"properties":{"lines":"6","color":"#0059a9","mode":"bus","arr":["6"],"angle":-64.5,"extra":1,"ei":0}},{"type":"Feature","geometry":{"type":"Point","coordinates":[22.925137,39.354138]},"properties":{"lines":"6","color":"#0059a9","mode":"bus","arr":["6"],"angle":-61.4,"extra":1,"ei":1}},{"type":"Feature","geometry":{"type":"Point","coordinates":[22.924004,39.352468]},"properties":{"lines":"6","color":"#0059a9","mode":"bus","arr":["6"],"angle":-71.5,"extra":1,"ei":2}},{"type":"Feature","geometry":{"type":"Point","coordinates":[22.924037,39.350619]},"properties":{"lines":"6","color":"#0059a9","mode":"bus","arr":["6"],"angle":69,"extra":1,"ei":3,"side":-1}},{"type":"Feature","geometry":{"type":"Point","coordinates":[22.924395,39.341551]},"properties":{"lines":"6","color":"#0059a9","mode":"bus","arr":["6"],"angle":-75.4,"extra":1,"ei":0}},{"type":"Feature","geometry":{"type":"Point","coordinates":[22.925208,39.343332]},"properties":{"lines":"6","color":"#0059a9","mode":"bus","arr":["6"],"angle":-69.5,"extra":1,"ei":1}},{"type":"Feature","geometry":{"type":"Point","coordinates":[22.925845,39.345143]},"properties":{"lines":"6","color":"#0059a9","mode":"bus","arr":["6"],"angle":-85.2,"extra":1,"ei":2}},{"type":"Feature","geometry":{"type":"Point","coordinates":[22.925756,39.347028]},"properties":{"lines":"6","color":"#0059a9","mode":"bus","arr":["6"],"angle":87,"extra":1,"ei":3}},{"type":"Feature","geometry":{"type":"Point","coordinates":[22.919309,39.317877]},"properties":{"lines":"6","color":"#0059a9","mode":"bus","arr":["6"],"angle":-75.9,"extra":1,"ei":0}},{"type":"Feature","geometry":{"type":"Point","coordinates":[22.920066,39.319671]},"properties":{"lines":"6","color":"#0059a9","mode":"bus","arr":["6"],"angle":-69.9,"extra":1,"ei":1}},{"type":"Feature","geometry":{"type":"Point","coordinates":[22.920837,39.321462]},"properties":{"lines":"6","color":"#0059a9","mode":"bus","arr":["6"],"angle":-73.2,"extra":1,"ei":2}},{"type":"Feature","geometry":{"type":"Point","coordinates":[22.921545,39.32327]},"properties":{"lines":"6","color":"#0059a9","mode":"bus","arr":["6"],"angle":-73.1,"extra":1,"ei":3}},{"type":"Feature","geometry":{"type":"Point","coordinates":[22.922253,39.325078]},"properties":{"lines":"6","color":"#0059a9","mode":"bus","arr":["6"],"angle":-73.1,"extra":1,"ei":4}},{"type":"Feature","geometry":{"type":"Point","coordinates":[22.92296,39.326885]},"properties":{"lines":"6","color":"#0059a9","mode":"bus","arr":["6"],"angle":-71.4,"extra":1,"ei":5}},{"type":"Feature","geometry":{"type":"Point","coordinates":[22.925386,39.33014]},"properties":{"lines":"6","color":"#0059a9","mode":"bus","arr":["6"],"angle":-58.4,"extra":1,"ei":6}},{"type":"Feature","geometry":{"type":"Point","coordinates":[22.925337,39.331898]},"properties":{"lines":"6","color":"#0059a9","mode":"bus","arr":["6"],"angle":67.6,"extra":1,"ei":7}},{"type":"Feature","geometry":{"type":"Point","coordinates":[22.924364,39.333628]},"properties":{"lines":"6","color":"#0059a9","mode":"bus","arr":["6"],"angle":58.3,"extra":1,"ei":8}},{"type":"Feature","geometry":{"type":"Point","coordinates":[22.923558,39.335344]},"properties":{"lines":"6","color":"#0059a9","mode":"bus","arr":["6"],"angle":88,"extra":1,"ei":9}},{"type":"Feature","geometry":{"type":"Point","coordinates":[22.923465,39.33723]},"properties":{"lines":"6","color":"#0059a9","mode":"bus","arr":["6"],"angle":-85.1,"extra":1,"ei":10}},{"type":"Feature","geometry":{"type":"Point","coordinates":[22.923852,39.339094]},"properties":{"lines":"6","color":"#0059a9","mode":"bus","arr":["6"],"angle":-80.7,"extra":1,"ei":11}},{"type":"Feature","geometry":{"type":"Point","coordinates":[22.925219,39.319252]},"properties":{"lines":"6","color":"#0059a9","mode":"bus","arr":["6"],"angle":63.1,"mi":1}},{"type":"Feature","geometry":{"type":"Point","coordinates":[22.936087,39.314489]},"properties":{"lines":"6","color":"#0059a9","mode":"bus","arr":["6"],"angle":46.4,"mi":6}},{"type":"Feature","geometry":{"type":"Point","coordinates":[22.934514,39.31022]},"properties":{"lines":"6","color":"#0059a9","mode":"bus","arr":["6"],"angle":62.3,"extra":1,"ei":0}},{"type":"Feature","geometry":{"type":"Point","coordinates":[22.936078,39.310891]},"properties":{"lines":"6","color":"#0059a9","mode":"bus","arr":["6"],"angle":-67,"extra":1,"ei":1}},{"type":"Feature","geometry":{"type":"Point","coordinates":[22.937431,39.31226]},"properties":{"lines":"6","color":"#0059a9","mode":"bus","arr":["6"],"angle":-64.4,"extra":1,"ei":2}},{"type":"Feature","geometry":{"type":"Point","coordinates":[22.934709,39.315111]},"properties":{"lines":"6","color":"#0059a9","mode":"bus","arr":["6"],"angle":9.3,"extra":1,"ei":3}},{"type":"Feature","geometry":{"type":"Point","coordinates":[22.932686,39.315242]},"properties":{"lines":"6","color":"#0059a9","mode":"bus","arr":["6"],"angle":-67.6,"extra":1,"ei":4}},{"type":"Feature","geometry":{"type":"Point","coordinates":[22.930648,39.315447]},"properties":{"lines":"6","color":"#0059a9","mode":"bus","arr":["6"],"angle":16.2,"extra":1,"ei":5}},{"type":"Feature","geometry":{"type":"Point","coordinates":[22.92831,39.315752]},"properties":{"lines":"6","color":"#0059a9","mode":"bus","arr":["6"],"angle":40.4,"extra":1,"ei":6}},{"type":"Feature","geometry":{"type":"Point","coordinates":[22.938582,39.302638]},"properties":{"lines":"6","color":"#0059a9","mode":"bus","arr":["6"],"angle":-35.4,"mi":12}},{"type":"Feature","geometry":{"type":"Point","coordinates":[22.924314,39.340815]},"properties":{"lines":"6","color":"#0059a9","mode":"bus","arr":["6"],"angle":73.9,"mi":10}},{"type":"Feature","geometry":{"type":"Point","coordinates":[22.933011,39.333276]},"properties":{"lines":"6","color":"#0059a9","mode":"bus","arr":["6"],"angle":-75,"mi":7}},{"type":"Feature","geometry":{"type":"Point","coordinates":[22.929825,39.337883]},"properties":{"lines":"6","color":"#0059a9","mode":"bus","arr":["6"],"angle":28.5,"mi":8}},{"type":"Feature","geometry":{"type":"Point","coordinates":[22.925575,39.340066]},"properties":{"lines":"6","color":"#0059a9","mode":"bus","arr":["6"],"angle":27.5,"extra":1,"ei":0}},{"type":"Feature","geometry":{"type":"Point","coordinates":[22.92775,39.339206]},"properties":{"lines":"6","color":"#0059a9","mode":"bus","arr":["6"],"angle":28.2,"extra":1,"ei":1}},{"type":"Feature","geometry":{"type":"Point","coordinates":[22.931717,39.337098]},"properties":{"lines":"6","color":"#0059a9","mode":"bus","arr":["6"],"angle":28.5,"extra":1,"ei":2}},{"type":"Feature","geometry":{"type":"Point","coordinates":[22.932948,39.335615]},"properties":{"lines":"6","color":"#0059a9","mode":"bus","arr":["6"],"angle":80.4,"extra":1,"ei":3}},{"type":"Feature","geometry":{"type":"Point","coordinates":[22.929713,39.329433]},"properties":{"lines":"6","color":"#0059a9","mode":"bus","arr":["6"],"angle":-60.6,"mi":3}},{"type":"Feature","geometry":{"type":"Point","coordinates":[22.931656,39.331758]},"properties":{"lines":"6","color":"#0059a9","mode":"bus","arr":["6"],"angle":-62.7,"extra":1,"ei":0}},{"type":"Feature","geometry":{"type":"Point","coordinates":[22.92765,39.327137]},"properties":{"lines":"6","color":"#0059a9","mode":"bus","arr":["6"],"angle":-75.6,"extra":1,"ei":1}},{"type":"Feature","geometry":{"type":"Point","coordinates":[22.925395,39.322924]},"properties":{"lines":"6","color":"#0059a9","mode":"bus","arr":["6"],"angle":-66.4}},{"type":"Feature","geometry":{"type":"Point","coordinates":[22.926742,39.325376]},"properties":{"lines":"6","color":"#0059a9","mode":"bus","arr":["6"],"angle":-64,"extra":1,"ei":0}},{"type":"Feature","geometry":{"type":"Point","coordinates":[22.924751,39.320022]},"properties":{"lines":"6","color":"#0059a9","mode":"bus","arr":["6"],"angle":-89.6,"extra":1,"ei":1}},{"type":"Feature","geometry":{"type":"Point","coordinates":[22.926973,39.31748]},"properties":{"lines":"6","color":"#0059a9","mode":"bus","arr":["6"],"angle":36.5,"mi":2}},{"type":"Feature","geometry":{"type":"Point","coordinates":[22.937546,39.307824]},"properties":{"lines":"6","color":"#0059a9","mode":"bus","arr":["6"],"angle":46.7,"mi":9}},{"type":"Feature","geometry":{"type":"Point","coordinates":[22.938516,39.306566]},"properties":{"lines":"6","color":"#0059a9","mode":"bus","arr":["6"],"angle":73,"extra":1,"ei":0}},{"type":"Feature","geometry":{"type":"Point","coordinates":[22.935351,39.309308]},"properties":{"lines":"6","color":"#0059a9","mode":"bus","arr":["6"],"angle":37.5,"extra":1,"ei":1}},{"type":"Feature","geometry":{"type":"Point","coordinates":[22.937712,39.30428]},"properties":{"lines":"6","color":"#0059a9","mode":"bus","arr":["6"],"angle":-41.1,"mi":11}},{"type":"Feature","geometry":{"type":"Point","coordinates":[22.922515,39.317574]},"properties":{"lines":"6","color":"#0059a9","mode":"bus","arr":["6"],"angle":-13.1,"mi":5}},{"type":"Feature","geometry":{"type":"Point","coordinates":[22.924684,39.318125]},"properties":{"lines":"6","color":"#0059a9","mode":"bus","arr":["6"],"angle":-41.6,"extra":1,"ei":0}},{"type":"Feature","geometry":{"type":"Point","coordinates":[22.920013,39.317121]},"properties":{"lines":"6","color":"#0059a9","mode":"bus","arr":["6"],"angle":-13.2,"extra":1,"ei":1}},{"type":"Feature","geometry":{"type":"Point","coordinates":[22.926152,39.356936]},"properties":{"lines":"8","color":"#0059a9","mode":"bus","arr":["8"],"angle":28.7,"side":-1,"mi":5}},{"type":"Feature","geometry":{"type":"Point","coordinates":[22.953093,39.365523]},"properties":{"lines":"7","color":"#0059a9","mode":"bus","arr":["7"],"angle":-52,"side":-1,"mi":12}},{"type":"Feature","geometry":{"type":"Point","coordinates":[22.959175,39.368362]},"properties":{"lines":"7","color":"#0059a9","mode":"bus","arr":["7"],"angle":-39,"mi":9}},{"type":"Feature","geometry":{"type":"Point","coordinates":[22.964927,39.369735]},"properties":{"lines":"7","color":"#0059a9","mode":"bus","arr":["7"],"angle":7.1,"extra":1,"ei":0}},{"type":"Feature","geometry":{"type":"Point","coordinates":[22.962496,39.369654]},"properties":{"lines":"7","color":"#0059a9","mode":"bus","arr":["7"],"angle":-0.4,"extra":1,"ei":1}},{"type":"Feature","geometry":{"type":"Point","coordinates":[22.956201,39.366949]},"properties":{"lines":"7","color":"#0059a9","mode":"bus","arr":["7"],"angle":-22.8,"extra":1,"ei":2}},{"type":"Feature","geometry":{"type":"Point","coordinates":[22.954053,39.366059]},"properties":{"lines":"7","color":"#0059a9","mode":"bus","arr":["7"],"angle":-30.5,"extra":1,"ei":3}},{"type":"Feature","geometry":{"type":"Point","coordinates":[22.963403,39.370158]},"properties":{"lines":"7","color":"#0059a9","mode":"bus","arr":["7"],"angle":-57,"mi":4}},{"type":"Feature","geometry":{"type":"Point","coordinates":[22.965521,39.369919]},"properties":{"lines":"7","color":"#0059a9","mode":"bus","arr":["7"],"angle":36.9,"mi":2}},{"type":"Feature","geometry":{"type":"Point","coordinates":[22.966743,39.369014]},"properties":{"lines":"7","color":"#0059a9","mode":"bus","arr":["7"],"angle":50.3,"extra":1,"ei":0}},{"type":"Feature","geometry":{"type":"Point","coordinates":[22.972767,39.3701]},"properties":{"lines":"7","color":"#0059a9","mode":"bus","arr":["7"],"angle":-3.4}},{"type":"Feature","geometry":{"type":"Point","coordinates":[22.977685,39.370429]},"properties":{"lines":"7","color":"#0059a9","mode":"bus","arr":["7"],"angle":18.7,"extra":1,"ei":0}},{"type":"Feature","geometry":{"type":"Point","coordinates":[22.975252,39.370332]},"properties":{"lines":"7","color":"#0059a9","mode":"bus","arr":["7"],"angle":-11.5,"extra":1,"ei":1}},{"type":"Feature","geometry":{"type":"Point","coordinates":[22.970471,39.369756]},"properties":{"lines":"7","color":"#0059a9","mode":"bus","arr":["7"],"angle":-23.8,"extra":1,"ei":2}},{"type":"Feature","geometry":{"type":"Point","coordinates":[22.968135,39.369208]},"properties":{"lines":"7","color":"#0059a9","mode":"bus","arr":["7"],"angle":-13.3,"extra":1,"ei":3}},{"type":"Feature","geometry":{"type":"Point","coordinates":[22.981445,39.369493]},"properties":{"lines":"7","color":"#0059a9","mode":"bus","arr":["7"],"angle":-33.1,"mi":5}},{"type":"Feature","geometry":{"type":"Point","coordinates":[22.979123,39.370263]},"properties":{"lines":"7","color":"#0059a9","mode":"bus","arr":["7"],"angle":-0.2,"extra":1,"ei":0}},{"type":"Feature","geometry":{"type":"Point","coordinates":[22.983009,39.370519]},"properties":{"lines":"7","color":"#0059a9","mode":"bus","arr":["7"],"angle":-29,"extra":1,"ei":1}},{"type":"Feature","geometry":{"type":"Point","coordinates":[22.987467,39.371701]},"properties":{"lines":"7","color":"#0059a9","mode":"bus","arr":["7"],"angle":-35.2,"mi":11}},{"type":"Feature","geometry":{"type":"Point","coordinates":[22.986035,39.374098]},"properties":{"lines":"7","color":"#0059a9","mode":"bus","arr":["7"],"angle":16.6,"mi":10}},{"type":"Feature","geometry":{"type":"Point","coordinates":[22.985919,39.37106]},"properties":{"lines":"7","color":"#0059a9","mode":"bus","arr":["7"],"angle":-22.4,"extra":1,"ei":0}},{"type":"Feature","geometry":{"type":"Point","coordinates":[22.966538,39.36869]},"properties":{"lines":"7","color":"#0059a9","mode":"bus","arr":["7"],"angle":-44.1,"mi":1}},{"type":"Feature","geometry":{"type":"Point","coordinates":[22.965993,39.368827]},"properties":{"lines":"7","color":"#0059a9","mode":"bus","arr":["7"],"angle":-87.3,"mi":3}},{"type":"Feature","geometry":{"type":"Point","coordinates":[22.975751,39.380602]},"properties":{"lines":"7","color":"#0059a9","mode":"bus","arr":["7"],"angle":60.5,"mi":7}},{"type":"Feature","geometry":{"type":"Point","coordinates":[22.975088,39.380078]},"properties":{"lines":"7","color":"#0059a9","mode":"bus","arr":["7"],"angle":-36.7,"mi":6}},{"type":"Feature","geometry":{"type":"Point","coordinates":[22.893096,39.357294]},"properties":{"lines":"8","color":"#0059a9","mode":"bus","arr":["8"],"angle":-50.8}},{"type":"Feature","geometry":{"type":"Point","coordinates":[22.910864,39.363897]},"properties":{"lines":"8","color":"#0059a9","mode":"bus","arr":["8"],"angle":-0.6,"mi":7}},{"type":"Feature","geometry":{"type":"Point","coordinates":[22.898051,39.36132]},"properties":{"lines":"8","color":"#0059a9","mode":"bus","arr":["8"],"angle":-59.3,"mi":1}},{"type":"Feature","geometry":{"type":"Point","coordinates":[22.89428,39.358776]},"properties":{"lines":"8","color":"#0059a9","mode":"bus","arr":["8"],"angle":-62.6,"extra":1,"ei":0}},{"type":"Feature","geometry":{"type":"Point","coordinates":[22.896176,39.359829]},"properties":{"lines":"8","color":"#0059a9","mode":"bus","arr":["8"],"angle":-27.1,"extra":1,"ei":1}},{"type":"Feature","geometry":{"type":"Point","coordinates":[22.899565,39.36246]},"properties":{"lines":"8","color":"#0059a9","mode":"bus","arr":["8"],"angle":-31.3,"extra":1,"ei":2}},{"type":"Feature","geometry":{"type":"Point","coordinates":[22.901688,39.363394]},"properties":{"lines":"8","color":"#0059a9","mode":"bus","arr":["8"],"angle":-30,"extra":1,"ei":3}},{"type":"Feature","geometry":{"type":"Point","coordinates":[22.905028,39.363864]},"properties":{"lines":"8","color":"#0059a9","mode":"bus","arr":["8"],"angle":7.2,"extra":1,"ei":0}},{"type":"Feature","geometry":{"type":"Point","coordinates":[22.907457,39.363917]},"properties":{"lines":"8","color":"#0059a9","mode":"bus","arr":["8"],"angle":-5.6,"extra":1,"ei":1}},{"type":"Feature","geometry":{"type":"Point","coordinates":[22.914768,39.36412]},"properties":{"lines":"8","color":"#0059a9","mode":"bus","arr":["8"],"angle":-6.8,"extra":1,"ei":2}},{"type":"Feature","geometry":{"type":"Point","coordinates":[22.917172,39.364423]},"properties":{"lines":"8","color":"#0059a9","mode":"bus","arr":["8"],"angle":-19.6,"extra":1,"ei":3}},{"type":"Feature","geometry":{"type":"Point","coordinates":[22.919085,39.364714]},"properties":{"lines":"8","color":"#0059a9","mode":"bus","arr":["8"],"angle":-6.9,"mi":3}},{"type":"Feature","geometry":{"type":"Point","coordinates":[22.92273,39.363396]},"properties":{"lines":"8","color":"#0059a9","mode":"bus","arr":["8"],"angle":49.8}},{"type":"Feature","geometry":{"type":"Point","coordinates":[22.925539,39.362485]},"properties":{"lines":"8","color":"#0059a9","mode":"bus","arr":["8"],"angle":14.3,"extra":1,"ei":0}},{"type":"Feature","geometry":{"type":"Point","coordinates":[22.921313,39.36417]},"properties":{"lines":"8","color":"#0059a9","mode":"bus","arr":["8"],"angle":17.2,"extra":1,"ei":1}},{"type":"Feature","geometry":{"type":"Point","coordinates":[22.919042,39.36462]},"properties":{"lines":"8","color":"#0059a9","mode":"bus","arr":["8"],"angle":54.5,"extra":1,"ei":2}},{"type":"Feature","geometry":{"type":"Point","coordinates":[22.927831,39.360946]},"properties":{"lines":"8","color":"#0059a9","mode":"bus","arr":["8"],"angle":58.2,"mi":2}},{"type":"Feature","geometry":{"type":"Point","coordinates":[22.928696,39.359864]},"properties":{"lines":"8","color":"#0059a9","mode":"bus","arr":["8"],"angle":51.2,"extra":1,"ei":0,"side":-1}},{"type":"Feature","geometry":{"type":"Point","coordinates":[22.925668,39.357401]},"properties":{"lines":"8","color":"#0059a9","mode":"bus","arr":["8"],"angle":-62.1,"mi":4}},{"type":"Feature","geometry":{"type":"Point","coordinates":[22.927955,39.358198]},"properties":{"lines":"8","color":"#0059a9","mode":"bus","arr":["8"],"angle":-62.4,"side":-1,"mi":6}},{"type":"Feature","geometry":{"type":"Point","coordinates":[22.928656,39.359233]},"properties":{"lines":"8","color":"#0059a9","mode":"bus","arr":["8"],"angle":-62,"extra":1,"ei":0,"side":-1}},{"type":"Feature","geometry":{"type":"Point","coordinates":[22.920464,39.364642]},"properties":{"lines":"8","color":"#0059a9","mode":"bus","arr":["8"],"angle":65.7,"mi":1}},{"type":"Feature","geometry":{"type":"Point","coordinates":[22.909477,39.388258]},"properties":{"lines":"9","color":"#0059a9","mode":"bus","arr":["9"],"angle":60,"mi":6}},{"type":"Feature","geometry":{"type":"Point","coordinates":[22.914882,39.386586]},"properties":{"lines":"9","color":"#0059a9","mode":"bus","arr":["9"],"angle":-37.5,"mi":3}},{"type":"Feature","geometry":{"type":"Point","coordinates":[22.920357,39.383729]},"properties":{"lines":"9","color":"#0059a9","mode":"bus","arr":["9"],"angle":32.1}},{"type":"Feature","geometry":{"type":"Point","coordinates":[22.908856,39.391053]},"properties":{"lines":"9","color":"#0059a9","mode":"bus","arr":["9"],"angle":-76.5,"extra":1,"ei":0}},{"type":"Feature","geometry":{"type":"Point","coordinates":[22.909955,39.389568]},"properties":{"lines":"9","color":"#0059a9","mode":"bus","arr":["9"],"angle":64.2,"extra":1,"ei":1}},{"type":"Feature","geometry":{"type":"Point","coordinates":[22.911789,39.387374]},"properties":{"lines":"9","color":"#0059a9","mode":"bus","arr":["9"],"angle":18.2,"extra":1,"ei":2}},{"type":"Feature","geometry":{"type":"Point","coordinates":[22.923336,39.382183]},"properties":{"lines":"9","color":"#0059a9","mode":"bus","arr":["9"],"angle":34.2,"mi":2}},{"type":"Feature","geometry":{"type":"Point","coordinates":[22.917808,39.385041]},"properties":{"lines":"9","color":"#0059a9","mode":"bus","arr":["9"],"angle":33.8,"mi":1}},{"type":"Feature","geometry":{"type":"Point","coordinates":[22.916414,39.3857]},"properties":{"lines":"9","color":"#0059a9","mode":"bus","arr":["9"],"angle":30.4,"extra":1,"ei":0,"side":-1}},{"type":"Feature","geometry":{"type":"Point","coordinates":[22.919139,39.384352]},"properties":{"lines":"9","color":"#0059a9","mode":"bus","arr":["9"],"angle":33.8,"extra":1,"ei":0}},{"type":"Feature","geometry":{"type":"Point","coordinates":[22.921574,39.383104]},"properties":{"lines":"9","color":"#0059a9","mode":"bus","arr":["9"],"angle":33.8,"extra":1,"ei":0}},{"type":"Feature","geometry":{"type":"Point","coordinates":[22.925617,39.380983]},"properties":{"lines":"9","color":"#0059a9","mode":"bus","arr":["9"],"angle":35.9,"extra":1,"ei":1}},{"type":"Feature","geometry":{"type":"Point","coordinates":[22.92681,39.380523]},"properties":{"lines":"9","color":"#0059a9","mode":"bus","arr":["9"],"angle":74,"mi":4}},{"type":"Feature","geometry":{"type":"Point","coordinates":[22.930289,39.381663]},"properties":{"lines":"9","color":"#0059a9","mode":"bus","arr":["9"],"angle":-28.7,"mi":5}},{"type":"Feature","geometry":{"type":"Point","coordinates":[22.927953,39.38089]},"properties":{"lines":"9","color":"#0059a9","mode":"bus","arr":["9"],"angle":-19.8,"extra":1,"ei":0}},{"type":"Feature","geometry":{"type":"Point","coordinates":[22.932164,39.38274]},"properties":{"lines":"9","color":"#0059a9","mode":"bus","arr":["9"],"angle":-40.1,"extra":1,"ei":1}},{"type":"Feature","geometry":{"type":"Point","coordinates":[22.943753,39.376066]},"properties":{"lines":"9","color":"#0059a9","mode":"bus","arr":["9"],"angle":28.5,"mi":2}},{"type":"Feature","geometry":{"type":"Point","coordinates":[22.942011,39.37703]},"properties":{"lines":"9","color":"#0059a9","mode":"bus","arr":["9"],"angle":57,"extra":1,"ei":0}},{"type":"Feature","geometry":{"type":"Point","coordinates":[22.946124,39.375056]},"properties":{"lines":"9","color":"#0059a9","mode":"bus","arr":["9"],"angle":29.1,"extra":1,"ei":1}},{"type":"Feature","geometry":{"type":"Point","coordinates":[22.949263,39.373341]},"properties":{"lines":"9","color":"#0059a9","mode":"bus","arr":["9"],"angle":37.6}},{"type":"Feature","geometry":{"type":"Point","coordinates":[22.947998,39.374082]},"properties":{"lines":"9","color":"#0059a9","mode":"bus","arr":["9"],"angle":36.8,"extra":1,"ei":0}},{"type":"Feature","geometry":{"type":"Point","coordinates":[22.949047,39.370509]},"properties":{"lines":"9","color":"#0059a9","mode":"bus","arr":["9"],"angle":-55.2,"mi":1}},{"type":"Feature","geometry":{"type":"Point","coordinates":[22.950332,39.371656]},"properties":{"lines":"9","color":"#0059a9","mode":"bus","arr":["9"],"angle":-29.5,"extra":1,"ei":0}},{"type":"Feature","geometry":{"type":"Point","coordinates":[22.947411,39.368654]},"properties":{"lines":"9","color":"#0059a9","mode":"bus","arr":["9"],"angle":-55.4,"extra":1,"ei":1}},{"type":"Feature","geometry":{"type":"Point","coordinates":[22.888706,39.376896]},"properties":{"lines":"11","color":"#0059a9","mode":"bus","arr":["11"],"angle":8.6}},{"type":"Feature","geometry":{"type":"Point","coordinates":[22.890907,39.376921]},"properties":{"lines":"11","color":"#0059a9","mode":"bus","arr":["11"],"angle":67.2,"extra":1,"ei":0}},{"type":"Feature","geometry":{"type":"Point","coordinates":[22.890171,39.378045]},"properties":{"lines":"11","color":"#0059a9","mode":"bus","arr":["11"],"angle":-37.5,"extra":1,"ei":1}},{"type":"Feature","geometry":{"type":"Point","coordinates":[22.886306,39.377558]},"properties":{"lines":"11","color":"#0059a9","mode":"bus","arr":["11"],"angle":27.4,"extra":1,"ei":2}},{"type":"Feature","geometry":{"type":"Point","coordinates":[22.884084,39.378343]},"properties":{"lines":"11","color":"#0059a9","mode":"bus","arr":["11"],"angle":23.7,"extra":1,"ei":3}},{"type":"Feature","geometry":{"type":"Point","coordinates":[22.881283,39.377606]},"properties":{"lines":"11","color":"#0059a9","mode":"bus","arr":["11"],"angle":-24.1,"mi":2}},{"type":"Feature","geometry":{"type":"Point","coordinates":[22.884078,39.377274]},"properties":{"lines":"11","color":"#0059a9","mode":"bus","arr":["11"],"angle":-9.9,"extra":1,"ei":0,"side":-1}},{"type":"Feature","geometry":{"type":"Point","coordinates":[22.882036,39.378944]},"properties":{"lines":"11","color":"#0059a9","mode":"bus","arr":["11"],"angle":27.1,"extra":1,"ei":1}},{"type":"Feature","geometry":{"type":"Point","coordinates":[22.895108,39.375781]},"properties":{"lines":"11","color":"#0059a9","mode":"bus","arr":["11"],"angle":11.6,"mi":1}},{"type":"Feature","geometry":{"type":"Point","coordinates":[22.886488,39.377042]},"properties":{"lines":"11","color":"#0059a9","mode":"bus","arr":["11"],"angle":11.5,"extra":1,"ei":0,"side":-1}},{"type":"Feature","geometry":{"type":"Point","coordinates":[22.888882,39.376666]},"properties":{"lines":"11","color":"#0059a9","mode":"bus","arr":["11"],"angle":11.5,"extra":1,"ei":1,"side":-1}},{"type":"Feature","geometry":{"type":"Point","coordinates":[22.891274,39.376283]},"properties":{"lines":"11","color":"#0059a9","mode":"bus","arr":["11"],"angle":11.9,"extra":1,"ei":2,"side":-1}},{"type":"Feature","geometry":{"type":"Point","coordinates":[22.898418,39.375027]},"properties":{"lines":"11","color":"#0059a9","mode":"bus","arr":["11"],"angle":14.5,"extra":1,"ei":3,"side":-1}},{"type":"Feature","geometry":{"type":"Point","coordinates":[22.90079,39.374577]},"properties":{"lines":"11","color":"#0059a9","mode":"bus","arr":["11"],"angle":13.8,"extra":1,"ei":4,"side":-1}},{"type":"Feature","geometry":{"type":"Point","coordinates":[22.903163,39.374128]},"properties":{"lines":"11","color":"#0059a9","mode":"bus","arr":["11"],"angle":13.8,"extra":1,"ei":5,"side":-1}},{"type":"Feature","geometry":{"type":"Point","coordinates":[22.90554,39.373695]},"properties":{"lines":"11","color":"#0059a9","mode":"bus","arr":["11"],"angle":13.4,"extra":1,"ei":6,"side":-1}},{"type":"Feature","geometry":{"type":"Point","coordinates":[22.907908,39.373233]},"properties":{"lines":"11","color":"#0059a9","mode":"bus","arr":["11"],"angle":16.7,"extra":1,"ei":7,"side":-1}},{"type":"Feature","geometry":{"type":"Point","coordinates":[22.892804,39.376147]},"properties":{"lines":"11","color":"#0059a9","mode":"bus","arr":["11"],"angle":11.6,"extra":1,"ei":0}},{"type":"Feature","geometry":{"type":"Point","coordinates":[22.883235,39.377673]},"properties":{"lines":"11","color":"#0059a9","mode":"bus","arr":["11"],"angle":11.8,"extra":1,"ei":1}},{"type":"Feature","geometry":{"type":"Point","coordinates":[22.915872,39.370385]},"properties":{"lines":"11","color":"#0059a9","mode":"bus","arr":["11"],"angle":28}},{"type":"Feature","geometry":{"type":"Point","coordinates":[22.909446,39.372782]},"properties":{"lines":"11","color":"#0059a9","mode":"bus","arr":["11"],"angle":23.9,"extra":1,"ei":0,"side":-1}},{"type":"Feature","geometry":{"type":"Point","coordinates":[22.911631,39.371939]},"properties":{"lines":"11","color":"#0059a9","mode":"bus","arr":["11"],"angle":26.3,"extra":1,"ei":1,"side":-1}},{"type":"Feature","geometry":{"type":"Point","coordinates":[22.913814,39.371092]},"properties":{"lines":"11","color":"#0059a9","mode":"bus","arr":["11"],"angle":27.2,"extra":1,"ei":2,"side":-1}},{"type":"Feature","geometry":{"type":"Point","coordinates":[22.918132,39.369327]},"properties":{"lines":"11","color":"#0059a9","mode":"bus","arr":["11"],"angle":30.5,"extra":1,"ei":3,"side":-1}},{"type":"Feature","geometry":{"type":"Point","coordinates":[22.920167,39.368282]},"properties":{"lines":"11","color":"#0059a9","mode":"bus","arr":["11"],"angle":35,"extra":1,"ei":4,"side":-1}},{"type":"Feature","geometry":{"type":"Point","coordinates":[22.92217,39.367202]},"properties":{"lines":"11","color":"#0059a9","mode":"bus","arr":["11"],"angle":34.5,"extra":1,"ei":5,"side":-1}},{"type":"Feature","geometry":{"type":"Point","coordinates":[22.936963,39.375662]},"properties":{"lines":"11","color":"#0059a9","mode":"bus","arr":["11"],"angle":-19.5,"mi":3}},{"type":"Feature","geometry":{"type":"Point","coordinates":[22.928484,39.372326]},"properties":{"lines":"11","color":"#0059a9","mode":"bus","arr":["11"],"angle":-29.6}},{"type":"Feature","geometry":{"type":"Point","coordinates":[22.927702,39.372426]},"properties":{"lines":"11","color":"#0059a9","mode":"bus","arr":["11"],"angle":62.1,"mi":1}},{"type":"Feature","geometry":{"type":"Point","coordinates":[22.927831,39.371171]},"properties":{"lines":"11","color":"#0059a9","mode":"bus","arr":["11"],"angle":-69.3,"mi":2}},{"type":"Feature","geometry":{"type":"Point","coordinates":[22.951216,39.366237]},"properties":{"lines":"11","color":"#0059a9","mode":"bus","arr":["11"],"angle":36,"side":-1}},{"type":"Feature","geometry":{"type":"Point","coordinates":[22.968092,39.356585]},"properties":{"lines":"15","color":"#0059a9","mode":"bus","arr":["15"],"angle":-20.8,"mi":1}},{"type":"Feature","geometry":{"type":"Point","coordinates":[22.966805,39.359955]},"properties":{"lines":"15","color":"#0059a9","mode":"bus","arr":["15"],"angle":54.2}},{"type":"Feature","geometry":{"type":"Point","coordinates":[22.969021,39.357623]},"properties":{"lines":"15","color":"#0059a9","mode":"bus","arr":["15"],"angle":48.5,"extra":1,"ei":0}},{"type":"Feature","geometry":{"type":"Point","coordinates":[22.964829,39.362264]},"properties":{"lines":"15","color":"#0059a9","mode":"bus","arr":["15"],"angle":58.7,"extra":1,"ei":1}},{"type":"Feature","geometry":{"type":"Point","coordinates":[22.960448,39.366895]},"properties":{"lines":"15","color":"#0059a9","mode":"bus","arr":["15"],"angle":46.6,"mi":2}},{"type":"Feature","geometry":{"type":"Point","coordinates":[22.963507,39.363997]},"properties":{"lines":"15","color":"#0059a9","mode":"bus","arr":["15"],"angle":59.7,"extra":1,"ei":0}},{"type":"Feature","geometry":{"type":"Point","coordinates":[22.962093,39.365531]},"properties":{"lines":"15","color":"#0059a9","mode":"bus","arr":["15"],"angle":46.6,"extra":1,"ei":1}},{"type":"Feature","geometry":{"type":"Point","coordinates":[22.958594,39.368142]},"properties":{"lines":"15","color":"#0059a9","mode":"bus","arr":["15"],"angle":32.9,"extra":1,"ei":2}},{"type":"Feature","geometry":{"type":"Point","coordinates":[22.956536,39.369159]},"properties":{"lines":"15","color":"#0059a9","mode":"bus","arr":["15"],"angle":32.6,"extra":1,"ei":3}},{"type":"Feature","geometry":{"type":"Point","coordinates":[22.930907,39.363665]},"properties":{"lines":"15","color":"#0059a9","mode":"bus","arr":["15"],"angle":75.5,"mi":2}},{"type":"Feature","geometry":{"type":"Point","coordinates":[22.930865,39.364397]},"properties":{"lines":"15","color":"#0059a9","mode":"bus","arr":["15"],"angle":-54.4,"mi":1}},{"type":"Feature","geometry":{"type":"Point","coordinates":[22.931814,39.366554]},"properties":{"lines":"15","color":"#0059a9","mode":"bus","arr":["15"],"angle":-55.6}},{"type":"Feature","geometry":{"type":"Point","coordinates":[22.934822,39.369199]},"properties":{"lines":"15","color":"#0059a9","mode":"bus","arr":["15"],"angle":-39.8,"mi":3}},{"type":"Feature","geometry":{"type":"Point","coordinates":[22.96098,39.378226]},"properties":{"lines":"49","color":"#0059a9","mode":"bus","arr":["49"],"angle":47.3,"mi":4}},{"type":"Feature","geometry":{"type":"Point","coordinates":[22.955839,39.381531]},"properties":{"lines":"49","color":"#0059a9","mode":"bus","arr":["49"],"angle":64.7,"mi":1}},{"type":"Feature","geometry":{"type":"Point","coordinates":[22.954344,39.38423]},"properties":{"lines":"49","color":"#0059a9","mode":"bus","arr":["49"],"angle":-69.5,"extra":1,"ei":0}},{"type":"Feature","geometry":{"type":"Point","coordinates":[22.954827,39.382713]},"properties":{"lines":"49","color":"#0059a9","mode":"bus","arr":["49"],"angle":45.2,"extra":1,"ei":1}},{"type":"Feature","geometry":{"type":"Point","coordinates":[22.957684,39.379852]},"properties":{"lines":"49","color":"#0059a9","mode":"bus","arr":["49"],"angle":32.8,"extra":1,"ei":2}},{"type":"Feature","geometry":{"type":"Point","coordinates":[22.959913,39.379168]},"properties":{"lines":"49","color":"#0059a9","mode":"bus","arr":["49"],"angle":18.1,"extra":1,"ei":3}},{"type":"Feature","geometry":{"type":"Point","coordinates":[22.95473,39.38507]},"properties":{"lines":"49","color":"#0059a9","mode":"bus","arr":["49"],"angle":4.3,"mi":3}},{"type":"Feature","geometry":{"type":"Point","coordinates":[22.956532,39.38502]},"properties":{"lines":"49","color":"#0059a9","mode":"bus","arr":["49"],"angle":-3.2,"mi":2}},{"type":"Feature","geometry":{"type":"Point","coordinates":[22.956133,39.38371]},"properties":{"lines":"49","color":"#0059a9","mode":"bus","arr":["49"],"angle":-61.1}},{"type":"Feature","geometry":{"type":"Point","coordinates":[22.955156,39.382561]},"properties":{"lines":"49","color":"#0059a9","mode":"bus","arr":["49"],"angle":-58.8,"extra":1,"ei":0}}]}