{"type":"FeatureCollection","features":[{"type":"Feature","properties":{"mode":"bus","n":10,"arr":["1","2","3","4","5","7","9","11","15","49"],"lines":"1, 2, 3, 4, 5, 7, 9, 11, 15, 49"},"geometry":{"type":"LineString","coordinates":[[22.942175,39.362379],[22.942246,39.362334],[22.942427,39.362288],[22.943004,39.362256],[22.944714,39.361506],[22.945704,39.361032]]}},{"type":"Feature","properties":{"mode":"bus","n":10,"arr":["1","2","3","4","5","7","9","11","15","49"],"lines":"1, 2, 3, 4, 5, 7, 9, 11, 15, 49"},"geometry":{"type":"LineString","coordinates":[[22.941866,39.362373],[22.941879,39.362384]]}},{"type":"Feature","properties":{"mode":"bus","n":10,"arr":["1","2","3","4","5","7","9","11","15","49"],"lines":"1, 2, 3, 4, 5, 7, 9, 11, 15, 49"},"geometry":{"type":"LineString","coordinates":[[22.941873,39.362151],[22.941994,39.362104],[22.942257,39.361817],[22.942506,39.361629],[22.943216,39.361439],[22.943554,39.361307],[22.946269,39.360061]]}},{"type":"Feature","properties":{"mode":"bus","n":9,"arr":["2","3","4","5","7","9","11","15","49"],"lines":"2, 3, 4, 5, 7, 9, 11, 15, 49"},"geometry":{"type":"LineString","coordinates":[[22.941879,39.362384],[22.942028,39.362428],[22.942175,39.362379]]}},{"type":"Feature","properties":{"mode":"bus","n":9,"arr":["2","3","4","5","7","9","11","15","49"],"lines":"2, 3, 4, 5, 7, 9, 11, 15, 49"},"geometry":{"type":"LineString","coordinates":[[22.933698,39.361941],[22.933782,39.361888],[22.933927,39.361861],[22.934192,39.36189],[22.936105,39.362498],[22.936398,39.362535],[22.936683,39.362531],[22.937458,39.362383],[22.93783,39.36234],[22.938087,39.362345],[22.938242,39.36239],[22.938322,39.36239],[22.938393,39.362368],[22.938453,39.362319],[22.938539,39.362305],[22.941555,39.362305],[22.941866,39.362373]]}},{"type":"Feature","properties":{"mode":"bus","n":8,"arr":["2","3","4","5","7","9","11","49"],"lines":"2, 3, 4, 5, 7, 9, 11, 49"},"geometry":{"type":"LineString","coordinates":[[22.934192,39.36189],[22.933912,39.361772],[22.93379,39.361749],[22.933733,39.361701],[22.933658,39.361679],[22.933531,39.361705],[22.933477,39.361753],[22.93346,39.361812]]}},{"type":"Feature","properties":{"mode":"bus","n":8,"arr":["2","3","4","5","7","9","11","49"],"lines":"2, 3, 4, 5, 7, 9, 11, 49"},"geometry":{"type":"LineString","coordinates":[[22.937549,39.362368],[22.937657,39.362313],[22.938049,39.362224],[22.938083,39.36221],[22.938107,39.362187],[22.938141,39.362134],[22.938272,39.362087],[22.938365,39.3621],[22.938457,39.362164],[22.938648,39.362179],[22.941279,39.362168],[22.941665,39.362191],[22.941873,39.362151]]}},{"type":"Feature","properties":{"mode":"bus","n":6,"arr":["2","5","7","9","11","49"],"lines":"2, 5, 7, 9, 11, 49"},"geometry":{"type":"LineString","coordinates":[[22.933698,39.361941],[22.93361,39.361948],[22.933534,39.361925],[22.933474,39.361867],[22.93346,39.361812]]}},{"type":"Feature","properties":{"mode":"bus","n":5,"arr":["1","3","5","11","15"],"lines":"1, 3, 5, 11, 15"},"geometry":{"type":"LineString","coordinates":[[22.962744,39.352617],[22.964193,39.35123]]}},{"type":"Feature","properties":{"mode":"bus","n":7,"arr":["2","4","5","7","9","11","49"],"lines":"2, 4, 5, 7, 9, 11, 49"},"geometry":{"type":"LineString","coordinates":[[22.933577,39.361686],[22.933241,39.361484],[22.932982,39.361386],[22.932962,39.361381],[22.932946,39.361382],[22.932932,39.36139],[22.932921,39.361403],[22.932874,39.361486],[22.932828,39.36152],[22.932609,39.36152]]}},{"type":"Feature","properties":{"mode":"bus","n":7,"arr":["2","4","5","7","9","11","49"],"lines":"2, 4, 5, 7, 9, 11, 49"},"geometry":{"type":"LineString","coordinates":[[22.933764,39.361721],[22.933873,39.361719],[22.933989,39.361655],[22.934316,39.36119],[22.934323,39.361175],[22.934322,39.361162],[22.934313,39.361151],[22.934297,39.361141],[22.933553,39.360837]]}},{"type":"Feature","properties":{"mode":"bus","n":7,"arr":["2","3","4","7","9","15","49"],"lines":"2, 3, 4, 7, 9, 15, 49"},"geometry":{"type":"LineString","coordinates":[[22.946269,39.360061],[22.951766,39.365928]]}},{"type":"Feature","properties":{"mode":"bus","n":7,"arr":["2","3","4","7","9","15","49"],"lines":"2, 3, 4, 7, 9, 15, 49"},"geometry":{"type":"LineString","coordinates":[[22.945704,39.361032],[22.946894,39.362518],[22.947532,39.363256],[22.950666,39.366545]]}},{"type":"Feature","properties":{"mode":"bus","n":6,"arr":["2","4","7","9","15","49"],"lines":"2, 4, 7, 9, 15, 49"},"geometry":{"type":"LineString","coordinates":[[22.951766,39.365928],[22.95183,39.365996]]}},{"type":"Feature","properties":{"mode":"bus","n":5,"arr":["2","3","7","9","11"],"lines":"2, 3, 7, 9, 11"},"geometry":{"type":"LineString","coordinates":[[22.95183,39.365996],[22.950724,39.366608]]}},{"type":"Feature","properties":{"mode":"bus","n":6,"arr":["2","4","5","7","9","49"],"lines":"2, 4, 5, 7, 9, 49"},"geometry":{"type":"LineString","coordinates":[[22.933553,39.360837],[22.933131,39.360664]]}},{"type":"Feature","properties":{"mode":"bus","n":5,"arr":["2","4","5","9","49"],"lines":"2, 4, 5, 9, 49"},"geometry":{"type":"LineString","coordinates":[[22.933131,39.360664],[22.932858,39.360553],[22.932839,39.360548],[22.932823,39.360549],[22.93281,39.360556],[22.932801,39.36057],[22.932367,39.36146]]}},{"type":"Feature","properties":{"mode":"bus","n":6,"arr":["2","4","5","9","11","49"],"lines":"2, 4, 5, 9, 11, 49"},"geometry":{"type":"LineString","coordinates":[[22.932553,39.36151],[22.932367,39.36146]]}},{"type":"Feature","properties":{"mode":"bus","n":5,"arr":["3","4","7","15","49"],"lines":"3, 4, 7, 15, 49"},"geometry":{"type":"LineString","coordinates":[[22.950666,39.366545],[22.950724,39.366608]]}}]}